,id,name,tagline,industry,industry_2,type,address,street,street_number,zip,country,city,sectors
48,85919,Spark Networks,"Spark Networks – A Leading Provider of Iconic, Niche-Focused Brands.",Dating,,4,"11150 CA-2 #600, Los Angeles, CA 90025, USA",California 2,11150,,United States,West Los Angeles,"presentation,network,Intellectual Property,presentation,community"
655,867000,Swarovski Group,Homepage - Swarovski Group,,,4,"Switzerland, Männedorf, Alte Landstrasse, 411",Alte Landstrasse,411,8708,Switzerland,Männedorf,
979,1504469,The American School in London,School in london,,,8,"United Kingdom, London",,,SW1A 2,United Kingdom,London,
1239,865395,Hewlett Packard,"Engineering experiences that amaze. We create technology with a purpose: to make life better for everyone, everywhere",,,4,"United States, Palo Alto",,,,United States,Palo Alto,"Music,robotic,wellness / beauty,Automotive,vr experiences,Aerospace,PaaS,Analytics"
1756,1237176,Columbia Equity Partners,Columbia Equity Partners,,,3,"1625 Federal Ave E, Seattle, WA 98102, USA",Federal Avenue East,1625,98102,United States,Seattle,
2038,1532751,Waterford Institute of Technology,School in waterford,,Education,8,"Cork Rd, Waterford, Ireland",Cork Road,,,Ireland,Waterford,
2317,1458250,Cennini Holding,Cenniniholding,,,15,"Belgium, Roeselare",,,8800,Belgium,Roeselare,
2366,1588639,Lazaridis School of Business and Economics,"Business school of wilfrid laurier university located in waterloo, ontario",,,8,"Canada, Waterloo",,,N2J,Canada,Waterloo,
2548,1634538,Anton & Luisa,Rooms & Creative Space in Berlin Mitte,,,12,"Wöhlertstraße 20, 10115 Berlin, Germany",Wöhlertstraße,,,Germany,Berlin,
2555,1811165,Yuan Ze University,"Private university located in Taoyuan City, Taiwan",,,8,"No. 135, Yuandong Road, Zhongli District, Taoyuan City, Taiwan 320",Yuandong Road,135,320,Taiwan,Taoyuan City,
2732,2024465,Caterwings,Caterwings en-DE,,,2,"Berlin, Germany",,,10117,Germany,Berlin,
2904,1528553,EAE Business School,School,,,8,"Spain, Barcelona",,,08007,Spain,Barcelona,
3010,1212663,Škoda Auto a.s,Official partner and the official tour de france since 2004,,,3,"Serbia, Belgrade",,,,Serbia,Belgrade,
3026,935558,ENSEEIHT,"École nationale supérieure d'électrotechnique, d'électronique, d'informatique, d'hydraulique et des télécommunications",,,8,"2 Rue Charles Camichel, 31000 Toulouse, France",Rue Charles Camichel,2,31000,France,Toulouse,Telecommunications
3038,2883337,Spoxies Research,Spoxies B.V.,,,2,"Netherlands, Utrecht",,,3511,Netherlands,Utrecht,
3045,935044,Telecom SudParis,"Télécom SudParis est une grande école qui forme des ingénieurs généralistes, ainsi que des ingénieurs de spécialité et des docteurs",,,8,"9 Rue Charles Fourier, 91000 Évry, France",Rue Charles Fourier,9,91000,France,Évry,Telecommunications
3221,2884560,Soon,Soon | Collaborative Team Scheduling,,,2,"Netherlands, The Hague",,,2514,Netherlands,The Hague,
3240,935896,Leiden University,"Leiden University, The Netherlands, was founded in 1575 and is one of Europe's leading international research universities",,,8,"Rapenburg, 2311 Leiden, Netherlands",Rapenburg,,,Netherlands,Leiden,Research
3316,2882834,Perspective Research,Perspective Business DesignHome - Perspective Business Design,,,2,"Netherlands, Amsterdam",,,1011 MG,Netherlands,Amsterdam,
3350,1755715,Universitat Rovira i Virgili,,,,8,"Spain, Tarragona",,,43003,Spain,Tarragona,
3546,150993,ESIC Business & Marketing School,"Educational institute that educates its students in areas of marketing, trade, and management",,,4,"Argentina, Córdoba, Avenida Madrid",Avenida Madrid,,,Argentina,Córdoba,
3579,1713172,Dr. B. R. Ambedkar National Institute of Technology Jalandhar,Public engineering institute,,,4,"India, Jalandhar",,,144001,India,Jalandhar,
3601,936927,Technische Universität Ilmenau,"Die Technische Universität Ilmenau ist DIE technische Universität in Thüringen mit 43 Studiengängen und mehr als 6.000 Studierenden.

http://t.co/Mc2AwPVs4M",,,8,"Newtonbau, Gustav-Kirchhoff-Straße 2, 98693 Ilmenau, Germany",Gustav-Kirchhoff-Straße,2,98693,Germany,Ilmenau,
3602,1448661,B+office,,,,14,"Dudenstraße 10, 10965 Berlin, Germany",Dudenstraße,10,,Germany,Berlin,
3714,1713010,Aston Business School,School,,,4,"United Kingdom, Birmingham",,,B3 3,United Kingdom,Birmingham,
3734,935660,Vlerick Business School,"Vlerick Business School is a top European Management School, with campuses in Ghent, Brussels and Leuven",,,8,"Reep 1, 9000 Gent, Belgium",Reep,1,9000,Belgium,Gent,school
3825,1529315,Academy of Fine Arts and Design in Bratislava,School in bratislava,,,8,"Slovakia, Bratislava, Námestie Republiky",Námestie Republiky,,851 01,Slovakia,Bratislava,
3878,1457136,The Bureau Dubai,"Office Space for Rent Dubai, Serviced Offices - The Bureau Dubai",,,2,"United Arab Emirates, Dubai",,,,United Arab Emirates,Dubai,
3968,31336,MaRS Investment Accelerator Fund,"Non-profit organization that partners with entrepreneurs, researchers, business and government to build the next generation of",,,3,"United States, Ontario",,,,United States,Ontario,"life science,Health Care,ICT services"
4013,1776784,Fireworks,,,,14,"Stockholmer Str. 4, 13359 Berlin, Germany",Stockholmer Straße,4,,Germany,Berlin,
4048,1233165,Axxess Capital,Axxess Capital is Investment Advisor of private equity funds,,,3,"Romania, Bucharest",,,,Romania,Bucharest,
4050,1862022,Paras Pharmaceuticals,"RB | Protect, heal and nurture",,,4,"India, Ahmedabad",,,380059,India,Ahmedabad,
4120,1518679,Tieto,A leading Nordic IT services and software company | Tieto,,,4,"Espoo, Finland",,,,Finland,Espoo,
4184,1478176,Lycée privé Sainte-Geneviève,School in versailles,,,8,"France, Versailles",,,78000,France,Versailles,
4229,1500890,"Holgate School, Barnsley",School,,,8,"United Kingdom, Barnsley",,,S70 2,United Kingdom,Barnsley,
4256,1239818,Supreme Group,"End-to-end supply chain solutions to defense, government, and commercial sector",,,3,"United Arab Emirates, Dubai",,,,United Arab Emirates,Dubai,
4324,920764,Queen City Angels,Queen City Angels,,,3,"United States, Cincinnati",,,,United States,Cincinnati,
4380,1530368,International School of Amsterdam,Private international school located in the city of Amstelveen in amsterdam,,,8,"Netherlands, Amstelveen",,,1181,Netherlands,Amstelveen,
4403,1720296,Indian Institute of Technology (BHU) Varanasi,A public engineering institution founded in 1919 with 13 departments and three inter-disciplinary schools,,,4,"India, Varanasi",,,221002,India,Varanasi,
4612,1520406,Ourofino,Ourofino Saúde Animal,Food,,4,"Brazil, Cravinhos",,,14140-000,Brazil,Cravinhos,"pet,livestock,Health Care"
4747,1861988,Grounded,GROUNDED® – Pure Plant Power,Food,,2,"United Kingdom, London",,,W10 6EH,United Kingdom,London,
4777,1656486,Karat Packaging,Karat Packaging is offers a wide selection of high-quality and cost effective disposable food and beverage products,Food,,2,"United States, Chino",,,91710,United States,Chino,"food packaging,Tea,packaging and containers"
4806,1387281,TravelCenters of America,Travel center business,Food,,2,"United States, Westlake",,,44145,United States,Westlake,"Parking,branding"
4817,1533276,GiliOcean Technology,Innovative sustainable fish farming,Food,,2,"Tel Aviv-Yafo, Israel",,,,Israel,Tel Aviv-Yafo,"Sustainability,fish farming,Aquaculture,novel farming,Farming"
4922,103946,The Individuals' Venture Fund,ベンツのレンタカーや観光バスで旅行満喫【ウキウキ気分が大爆発】,Legal,,2,"United States, Palo Alto",,,,United States,Palo Alto,
4938,1457488,AL-DEERA Holding,Al Deera Holding Co.,Legal,,2,"Kuwait, Kuwait City",,,,Kuwait,Kuwait City,
4985,1644858,Namati,Namati trains and deploys grassroots legal advocates – sometimes known as ‘barefoot lawyers’,Legal,,2,"20004 Washington, District of Columbia, United States",,,20004,United States,Washington,"Banking,payment"
5159,2948133,DynamicScreen,,Media,,2,"Bordeaux, Nouvelle-Aquitaine, France",,,33000,France,Bordeaux,
5330,1448915,K18,Workspaces of different sizes for professionals in the creative industry,Media,,12,"Kinzigstraße 18, 10247 Berlin, Germany",Kinzigstraße,,,Germany,Berlin,"workspace,video"
5462,1456880,Kuwaiti European Holding Company,News from http://t.co/Z3JOKIYzYa (that's the hosted version). Follow @WordPress for .org updates. Get support at: http://t.co/uAI0RPs8hM An @Automattic product.,Media,,2,"Kuwait, Kuwait City",,,,Kuwait,Kuwait City,financial service
5594,2018819,Freedom Lab,,Media,,2,"Amsterdam, Netherlands",,,,Netherlands,Amsterdam,
5687,2311786,CScout Japan,Shift East - Every photo has its place.,Media,,2,"Tokyo, Japan",,,,Japan,Tokyo,
5905,1315500,DomainInvesting.com,Online publication covering the business of domain name investing and the domain name industry,Media,Fintech,2,"United States, Wellesley",,,02481,United States,Wellesley,investing
5923,1529295,Duart,Online tool which gathers actors from the region,Media,,2,"Croatia, Zagreb",,,10000,Croatia,Zagreb,Search Engine
5929,1832440,PM SA,,Media,,2,"France, Paris, Boulevard de Courcelles, 29",Boulevard de Courcelles,29,75008,France,Paris,
5954,984195,Wall-Street ro,"Wall-Street ro is a newspaper that publishes content on economy, business, capital markets, investments, startups, finance, and more",Media,,2,"Romania, Bucharest",,,,Romania,Bucharest,"Broadcast,Retail,investing"
5955,1532788,Adpow,Social media growth platform,Media,,2,"Bulgaria, Sofia",,,1000,Bulgaria,Sofia,"platform,Social,Social Media"
6054,1528111,Juzi Entertainment,New media content producer,Music,,2,"Austria, Strass im Zillertal",,,6261,Austria,Strass im Zillertal,Entertainment
6070,1464955,Zylia,ZYLIA Portable Recording Studio. Multi-track music recording with one mic. - ZYLIA,Music,,2,"Uniwersytetu Poznańskiego 2, 61-614 Poznań, Poland",Uniwersytetu Poznańskiego,,,Poland,Poznań,"Outsourcing,sound technology,Audio,Music"
6149,1457714,Sarir Startup Land,فضای کار اشتراکی و شتابدهی سریر – به رویاهات رنگ واقعیت ببخش,Energy,,2,"Iran, Tehran",,,,Iran,Tehran,"Oil & gas,Information Technology"
6164,1456920,Noor Financial Investment,Noor Investment,Energy,,2,"Kuwait, Kuwait City",,,,Kuwait,Kuwait City,
6308,1644609,GE Transportation,"GE Transportation manufactures equipment for railroad, marine, mining, drilling, and energy generation industries",Energy,,4,"United States, Chicago",,,60602,United States,Chicago,outside tech
6322,2899256,Sterlite Power,Sterlite Power: Electric Power Transmission Company & Solutions Provider,Energy,,2,"New Delhi, Delhi, India",,,,India,New Delhi,outside tech
6472,1457111,Qatar Solar Technologies,Home | QSTec - Qatar Solar Technologies,Energy,,4,"Qatar, Doha",,,,Qatar,Doha,"solar energy,green technology"
6490,955700,Aggreko,Generator Rental | Temperature Control I Hire Generator I | Aggreko,Energy,,4,"United Kingdom, Glasgow",,,,United Kingdom,Glasgow,"Cooling tech,Recruitment,control systems,temperature,generator,heating,renting,renting"
6507,1761333,Nocart,Nocart is an environmentally conscious energy company using multiple sources to produce high quality green electricity for all needs,Energy,,2,"Niemenkatu 73, 15210 Lahti, Finland",Niemenkatu,73,,Finland,Lahti,"core sustainable impact,sustainable development goals,Affordable and Clean Energy (#7)"
6576,1454569,Vertical Partners West,Custom Battery Designs for OEMs,Energy,Marketing,2,"Ireland, Wicklow",,,,Ireland,Wicklow,"battery,charging technology"
6617,1541128,International Academy of Computer Graphics,IACG as an Industrial Academy is offerin,Gaming,Education,8,"India, Hyderabad",,,500001,India,Hyderabad,
6808,2910448,Alaya Care,Home Care Software | Home Health Software | AlayaCare,Health,,2,"Montreal, QC, Canada",,,H2L,Canada,Montreal,
6830,101454,Health Enterprise Partners,Healthcare Private Equity Firm - Health Enterprise Partners,Health,,3,"United States, New York",,,,United States,New York,"partners,medical / healthcare,healthcare,equity research,Health"
7078,2020451,Messly,Messly | The Doctors' Career Companion,Health,,2,"London, England, United Kingdom",,,SW1A 2,United Kingdom,London,
7080,893127,Safe Orthopaedics,Develops and sells medical devices. The Company specializes in medical products used in spinal surgery,Health,,2,"Allée Rosa Luxemburg, 95610 Éragny, France",Allée Rosa Luxemburg,,95610,France,Éragny,"surgery,medical device"
7176,1452647,"Institute of Information Science, Academia Sinica","Institute of Biological Chemistry, Academia Sinica",Health,,3,"Taiwan, Taipei City",,,110,Taiwan,Taipei City,Biotechnology
7219,949639,Fiagon,Navigation system uses electromagnetic tracking matrix algorithms and the world's first flexible pointer technology,Health,,2,"Neuendorfstraße 23b, 16761 Hennigsdorf Berlin, Germany",Neuendorfstraße,23b,16761,Germany,Hennigsdorf Berlin,"Lead Generation,electromagnetic,Freemium,system engineering,Tracking,Medical Technology,platform,SaaS,Navigation"
7276,1548729,Docplexus,Online platform for doctors where they can communicate with peers and other healthcare service providers,Health,,15,"India, Pune",,,411030,India,Pune,"platform,sharing economy"
7322,1414178,Lumeris,Accountable care delivery innovation company,Health,,2,"United States, St. Louis",,,,United States,St. Louis,"Delivery,consulting services"
7387,1530831,VUmc,University hospital affiliated with the VU University Amsterdam,Health,,8,"Netherlands, Amsterdam",,,1011 MG,Netherlands,Amsterdam,
7517,1532732,Athlone Institute of Technology,"Higher learning academic institute providing courses on business, humanities, engineering and science",Health,,2,"Dublin Rd, Bunnavally, Athlone, Co. Westmeath, Ireland",Dublin Road,,,Ireland,Athlone,
7570,2021419,OnCall Health,"OnCall Health – Online Counselling, Telemedicine, Practice Management",Health,,2,"Toronto, ON, Canada",,,M5H,Canada,Toronto,Messaging
7573,126718,Nanovi,NANOVI | Solutions Improving Cancer TherapyNANOVI | Solutions Improving Cancer Therapy,Health,,2,"Diplomvej, 2800 Kongens Lyngby, Denmark",Diplomvej,,,Denmark,Kongens Lyngby,"oncology,medical / healthcare,therapy,imaging technology,cancer,Biotechnology,Navigation"
7630,1455237,Ditchley Group,Ditchley Group,Health,Real Estate,2,"4th floor, 11 Anglesea St, Ballintemple, Cork, T12 CYR8, Ireland",Anglesea Street,,,Ireland,Cork,"Health Care,hospital"
7631,1457869,Maysaffron,maysaffron,Health,,2,"United Arab Emirates, Abu Dhabi",,,,United Arab Emirates,Abu Dhabi,
7668,892048,Pixyl,Working to improve patient care by placing the most advanced AI tech in the hands of radiologists and clinicians,Health,Enterprise Software,2,"5 Avenue du Grand Sablon, 38700 La Tronche, France",Avenue du Grand Sablon,5,38700,France,La Tronche,"healthcare,neurology,patient care,stroke,Biotechnology,Analytics"
7754,985904,LifeMap Sciences,LifeMap Sciences develops and commercializes next-generation sequencing (NGS) analysis solutions,Health,,2,"Israel, Tel Aviv-Yafo, HaNehoshet Street, 5",HaNehoshet Street,5,,Israel,Tel Aviv-Yafo,"Data Analytics,Medical Technology,regenerative medicine,Biotechnology,Analytics,Health"
7810,1454035,HealthXL,"Connecting healthcare leaders. We bring the people, thinking and technology together #HXLGG

https://t.co/JrfTnC0gLP",Health,,2,"Fleming Court, Flemmings Pl, Ballsbridge, Dublin, Ireland",Flemmings Place,,,Ireland,Dublin,
7863,1466306,Flanders.bio,Home | flanders.bio,Health,,2,"Jean-Baptiste de Ghellincklaan 13, 9051 Gent, Belgium",Jean-Baptiste de Ghellincklaan,,,Belgium,Gent,Biotechnology
7884,1532990,Palvella Therapeutics,Rare disease biopharmaceutical company,Health,,2,"125 Strafford Ave, Wayne, PA 19087, USA",Strafford Avenue,125,19087,United States,Wayne,"biological,Biotech and pharma,disease,pharmaceutical,Biotechnology"
8236,1455545,TeamTalk,,Sports,,2,"London, United Kingdom",,,,United Kingdom,London,"financial service,sport"
8286,1514115,Caissa Touristic,Startseite - Caissa Touristic (Group) AG,Travel,,2,"Burchardstraße 21, 20095 Hamburg, Duitsland",Burchardstraße,,,Germany,Hamburg,"Travel,travel and tourism,tourism"
8337,2734959,Hotel Urbano,"Find Hotels, Resorts, Hostels and more -  Travel Agency | Hurb",Travel,,2,"Av. João Cabral de Mello Neto, 400 - Barra da Tijuca, Rio de Janeiro - RJ, Brazil",Avenida João Cabral de Mello Neto,400,,Brazil,Rio de Janeiro,
8399,880188,Adara Media,ADARA leverages global travel data to drive future business performance,Travel,Telecom,2,"United States, Mountain View",,,,United States,Mountain View,"Travel,user behavior,platform,Search Engine,sharing economy,SaaS,investing"
8427,1395171,Proteus,Proteus helps companies digitally transform to create dramatic efficiencies and grow in the digital age,Travel,,2,"70 Allée Graham Bell, 30000 Nîmes, France",Allée Graham Bell,,,France,Nimes,"adventure,Content Management,platform,SaaS"
8629,1539628,Rayson Technology,"One-stop shopping for EMS/JDMS services with quality, cost-performance, flexibility and creativity",Fashion,,4,China,,,,China,Shenzhen,"outside tech,Shopping"
8637,981478,Oliver Wicks,"Online custom menswear, made of Italian and English wool",Fashion,,2,"Bulgaria, Sofia",,,,Bulgaria,Sofia,"Lifestyle,service provider,Retail"
8645,86757,Shopbop,Shopbop.com Designer Women's Fashion Brands,Fashion,,2,"1301 E Washington Ave, Madison, WI 53703, USA",East Washington Avenue,1301,,United States,Madison,branding
8783,1714246,Steinbeis-Hochschule Berlin,School,Fintech,,8,"Ernst-Augustin-Straße 15, 12489 Berlin, Germany",Ernst-Augustin-Straße,,,Germany,Berlin,
8784,1652614,WalletStar Financial,Company that specializes in financial products,Fintech,,2,"United States, Houston",,,77002,United States,Houston,outside tech
8886,1467159,Northwestern Mutual,Northwestern Mutual | Spend Your Life Living,Fintech,,4,"United States, Milwaukee, E Wisconsin Ave, 720",E Wisconsin Ave,720,53202,United States,Milwaukee,"insurtech,investing"
8934,987759,Penny Royalty,An Alternative Investment Model that issues security token to invest in people's careers,Fintech,,2,"Israel, Tel Aviv-Yafo",,,,Israel,Tel Aviv-Yafo,"Crowdfunding,Innovation Management,platform,SaaS"
8949,1457838,Capira Capital,Capira Capital,Fintech,Real Estate,2,"United Arab Emirates, Dubai",,,,United Arab Emirates,Dubai,debt collection
8988,1393341,Invencor,Venture capital and private equity firm,Fintech,,2,"United States, San Francisco",,,,United States,San Francisco,"debt collection,investing"
9095,1812778,Oxygen,"Oxygen – Banking for free thinkers, rebels and entrepreneurs. Awarded Best Digital Banking Account in the US",Fintech,,2,"United States, San Francisco",,,94102,United States,San Francisco,Banking
9119,1210852,Nullatech,Our prediction service gives you important insights to overcome risks of trading and investment caused by uncertainty of the future market,Fintech,,3,"Iran, Tehran",,,,Iran,Tehran,"Trading,user behavior,Risk Management,Social,Social Media"
9139,984132,Swiss Capital S.A.,Swiss Capital S.A. is a financial services and investmenmt company,Fintech,,2,"Bulevardul Dacia 20, București 013714, Romania",Bulevardul Dacia,,,Romania,București,financial service
9203,1451221,FarPay,Provides plug-n-play cloud solutions that give businesses access to all types of payment solutions,Fintech,,2,"Applebys Plads, Copenhagen, Denmark",Applebys Plads,,,Denmark,Copenhagen,
9264,1569374,Oxygen,"Digital bank, focused on freelancers and the gig-economy at large offering banking and credit",Fintech,,2,"United States, San Francisco",,,94102,United States,San Francisco,"financial service,loan,Freelancers,credit card,Banking"
9304,1456938,Phaze Ventures,phaze ventures,Fintech,,2,"Oman, Muscat",,,,Oman,Muscat,"platform,SaaS"
9431,1221190,2nate,Crowdfunding platform which helps people to raise fund for their projects which have social impacts,Fintech,,3,"Iran, Tehran",,,,Iran,Tehran,"Crowdfunding,platform,Social"
9437,137017,CardFlight,Cardflight - Mobile POS Made Easy.,Fintech,,2,"United States, New York",,,,United States,New York,point of sale
9528,1726408,PME Investimentos,Provider of revitalization and expansion of the supply of finance to companies in the non-financial sector,Fintech,,3,"Portugal, Porto",,,4000-069,Portugal,Porto,"debt collection,Risk Management,Banking,sharing economy,investing"
9552,107071,Systems Maintenance Services,,Fintech,Media,2,"United States, Charlotte",,,,United States,Charlotte,"on-demand,Storage,video,Retail,consulting services,Messaging"
9653,1511392,APX,Invest in fearless founding teams with ambitious digital ideas and global aspirations,Fintech,,3,"Markgrafenstraße 12-14, 10969 Berlin, Germany",Markgrafenstraße,12-14,,Germany,Berlin,financial service
9660,1566077,DBS Securities Limited,Securities Acquisition and Liquidation,Fintech,,2,"Japan, Tokyo",,,,Japan,Tokyo,"Crowdfunding,debt collection,investing"
9681,2881628,Payments & Cards Network,PCN - The Number 1 Source For Recruitment Jobs,Fintech,,2,"Netherlands, Amsterdam",,,1011 MG,Netherlands,Amsterdam,
9716,985201,Crimson Capital,Crimson Capital is an international leader in emerging market development,Fintech,,4,"Prague, Czech Republic",,,,Czech Republic,Prague,"Mortgages & Lending,Business Development,Developer Tools"
9719,1457267,Kuwait Financial Centre - Markaz,"Kuwait Financial Centre Markaz is one of the leading asset management and investment banking institution with offices across the Middle East, the U.S., & India",Fintech,,4,"Kuwait, Kuwait City",,,,Kuwait,Kuwait City,"financial service,Asset management,Banking"
9763,984140,Banca Transilvania,"Banca Transilvania is one of the leading banks in Romania, consistently ranked as one of the country's most trusted brands",Fintech,,4,"Romania, Cluj-Napoca",,,,Romania,Cluj-Napoca,Banking
9844,1456907,KAMCO Investment,KAMCO Investment Company,Fintech,,2,"Kuwait, Kuwait City",,,,Kuwait,Kuwait City,"Asset management,Banking"
9900,1341011,Signature Financial Corporation,Commercial real estate development company,Fintech,Real Estate,2,"United States, Conshohocken",,,19428,United States,Conshohocken,investing
9940,1240349,Centaur Fund Services,Provider of independent fund administration and regulatory services,Fintech,,2,"D01 V9V4 Dublin, Ireland",,,D01 V9V4,Ireland,Dublin,"administration,financial service,Banking,compliance"
10003,1456828,Cocoon Venture,Cocoon Ventures,Fintech,,2,"United Arab Emirates, Dubai",,,,United Arab Emirates,Dubai,"financial service,investing"
10057,1216081,Fransabank,"Retail, corporate, investment, and private banking services",Fintech,,3,"Lebanon, Beirut",,,,Lebanon,Beirut,"Mortgages & Lending,financial service,Banking,Retail"
10301,985809,ASOCS,ASOCS empowers mobile digital transformation in the enterprise,Telecom,,2,"Israel, Rosh Haayin, HaMelacha Street, 21",HaMelacha Street,21,,Israel,Rosh Haayin,"iot,rf technology,Network Security,network hardware,mobile networks"
10397,1706803,Symbiosis Institute of Telecom Management,Symbiosis Institute of Telecom Management,Telecom,,2,"India, Pune",,,411030,India,Pune,outside tech
10481,864480,Liquid Robotics,Develops robotic instruments for ocean data collection and exploration,Robotics,,2,"United States, Sunnyvale, Moffett Park Drive, 1329",Moffett Park Drive,1329,94089,United States,Sunnyvale,"crawling,ocean,sensor,marine,robotic,exploration,Data Analytics,video,communication,Risk Management,platform,monitoring,game development,Navigation"
10490,1633835,Augean Robotics,"Solving the farm labor problem by making Wall-E a reality, beginning with Burro, a following robot that can shuttle material autonomously",Robotics,,2,"United States, Philadelphia",,,19107,United States,Philadelphia,"Farming,agritech,platform"
10607,2025965,Indoor Robotics,"Indoor Robotics | Creator of the 1st Autonomous Aerial Platform - Be constantly vigilant with Tando, an Indoor drone fleet for security, inspections and operational tasks, anywhere, anytime.",Robotics,,2,"Ramat Gan, Tel Aviv, Israel",,,52000,Israel,Ramat Gan,
10773,1454464,Friends First Life Assurance,Friends First,Security,Fintech,4,"blarney direction, Blarney, Co. Cork, Ireland",,,,Ireland,Blarney,"financial service,Insurance"
10779,1505011,Plexal,Plexal is the innovation centre and coworking space based at Here East,Security,Real Estate,12,"Plexal, Here East, Queen Elizabeth Olympic Park, Hackney Wick, London E20 3BS",,,E20 3BS,United Kingdom,London,Security
10791,1460020,Barbara IoT,Develops OS - the most secure Operating System for Industrial IoT,Security,,2,"Calle Vivero, 5, 28040 Madrid, Spain",Calle Vivero,5,28040,Spain,Madrid,
10893,148220,Droplit,All of the infrastructure for connected commercial products,Security,,2,"2087 Sarno Rd Suite 100, Melbourne, FL 32935, USA",Sarno Road,2087,32935,United States,Melbourne,"product development,internet of things,app,Developer Tools"
10918,1455723,Technology From Ideas,"tfi | technology from ideas - Innovation, Technology Development, IP Protection",Security,Fintech,2,"Charlemont Terrace, 6 Crofton Rd, Dún Laoghaire, Dublin, Ireland",Crofton Road,,,Ireland,Dublin,financial service
11036,1582675,NextAI,"NextAI, like the programs before it, is devoted to fostering entrepreneurship in Canada",Education,,2,"Canada, Toronto",,,M5H,Canada,Toronto,
11081,1270781,Taunt,Esports fan competition platform,Education,,2,"Seattle, WA, United States",,,98104,United States,Seattle,"platform,game development,SaaS,Social"
11108,141220,Scratch Music Group,Scratch.com - Learn to DJ | Discover | Book a DJ,Education,Music,2,"United States, New York",,,,United States,New York,"dj,Retail,Entertainment"
11123,1529329,Estonian Business School,Training facility that caters the needs of organizations’ management functions,Education,,8,"A. Lauteri 3, 10114 Tallinn, Estonia",A. Lauteri,3,10114,Estonia,Tallinn,
11200,1519371,Max Planck Institute for Software Systems,"The Max Planck Institute for Software Systems conducts high-risk, high-impact research in all areas",Education,,2,"Campus E1 5, 66123 Saarbrücken, Germany",Campus,,,Germany,Saarbrücken,
11205,1522331,Northwest Career College,"Northwest Career College | Trade School Las Vegas, NV",Education,,2,"United States, Las Vegas",,,89101,United States,Las Vegas,
11253,118932,Newberry College,,Education,,2,"United States, Newberry",,,29108,United States,Newberry,
11261,1720558,Fore School of Management,School in new delhi,Education,,4,"India, New Delhi",,,110001,India,New Delhi,
11371,877856,University of Strathclyde,University of Strathclyde,Education,,8,"United Kingdom, Glasgow",,,,United Kingdom,Glasgow,
11380,1553627,T. A. Pai Management Institute,Indian management institute that supports the task of building professional management capabilities,Education,,8,"India, Bengaluru",,,560002,India,Bengaluru,
11416,1529602,Antwerp Management School,School in antwerp,Education,,8,"Belgium, Antwerp",,,2000,Belgium,Antwerp,
11437,1725608,New Model in Technology & Engineering,The first wholly new British HEI or university level institution in over 40 years,Education,,2,"United Kingdom, Hereford",,,HR4 0,United Kingdom,Hereford,
11443,1722799,Royal Academy of Arts,"The Royal Academy of Arts promotes the creation, enjoyment, and appreciation of the visual arts through exhibitions, education, and debate",Education,,4,"United Kingdom, London",,,SW1A 2,United Kingdom,London,"Charity,outside tech,arts & culture"
11454,1354064,Sewickley Academy,"Sewickley Academy inspires and educates students to engage their hearts, minds, and hands to cultivate their full individual",Education,,8,"United States, Sewickley",,,15143,United States,Sewickley,
11501,1719319,HTW saar,The htw saar counseling and preparatory study deals interested refugees,Education,,2,"Germany, Saarbrucken",,,66111,Germany,Saarbrücken,
11522,1452118,WritePath,"AI translation solution for User manual, Investor relations report, CSR/ESG report, and E-Commerce product description",Education,Fintech,2,"Taiwan, Taipei City, Lane 559, Sec 4, Zhong Xiao E. Rd., 1","Lane 559, Sec 4, Zhong Xiao E. Rd.",1,110,Taiwan,Taipei City,translation
11533,1546009,"International Institute of Information Technology, Hyderabad (IIIT-H)",Autonomous university founded in 1998,Education,,8,"India, Hyderabad",,,500001,India,Hyderabad,
11535,1532693,Dundalk Institute of Technology,"A variety of courses in business, engineering, and science",Education,Jobs Recruitment,4,"Ireland, Dundalk",,,,Ireland,Dundalk,
11544,139293,College Covers,College-themed Bedding for NCAA Schools | College Covers,Education,,2,"United States, Hartington",,,68739,United States,Hartington,school
11558,1468024,Lock Haven University of Pennsylvania,Lock Haven University,Education,,4,"Lock Haven, PA, United States",,,17745,United States,Lock Haven,
11560,1308110,Trinity School,School,Education,Kids,8,"2650 Sand Hill Rd, Menlo Park, CA 94025, USA",Sand Hill Road,2650,94025,United States,Menlo Park,
11576,1475776,SmartMe.University,Platform for online learning,Education,,2,"01001 Kiev, Ukraine",,,01001,Ukraine,Kiev,"Content,E-Learning"
11599,1729004,Bahrain Institute of Banking and Finance,International,Education,,4,"Bahrain, Manama",,,,Bahrain,Manama,Banking
11617,1457527,CH9,Corporate Hub 9 - Do. Business.,Education,Fintech,2,"Bahrain, Manama",,,,Bahrain,Manama,"financial service,platform,SaaS"
11722,1565065,PlayBrain,"Frictionless Game Marketing (Community, Esports, Influencer Media)",Marketing,Gaming,2,"Japan, 〒150-0021 Tōkyō-to, Shibuya City, Ebisunishi, 1-chōme−16−１５ ＥＢＩＳＵ－ＷＥＳＴ",,,150-0021,Japan,Shibuya City,"Video Games,influencer marketing,community,game development,Advertising"
11723,1837462,Nebula,"Provides cloud services, advanced ICT environments and end-user services",Marketing,,2,"Böle bro, Helsingfors, Finland",Böle bro,,,Finland,Helsingfors,
11732,154135,H-art,"AKQA GROUP- Driven by data and innovation, generating long-term business value and creating a positive impact on people’s lives",Marketing,,2,"Italy, Treviso, Via Bragadin, 5",Via Bragadin,5,31100,Italy,Treviso,"customer management,creating,Public Relations,emotions,PR,arts & culture"
11755,5563,Albion,We are a creative business partner We work with companies to invent and reinvent their businesses to unlock growth,Marketing,,15,"United Kingdom, London, Shoreditch High Street, 67-71",Shoreditch High Street,67-71,E1 6JJ,United Kingdom,London,"web design,communication,branding,Social,Advertising,Adtech,agency"
11872,985595,Euro Digital Partners,International Digital Marketing Agency with experience from ICOs to ecommerce,Marketing,,2,"Prague, Czech Republic",,,,Czech Republic,Prague,"Advertising,Adtech,SEO"
11876,1358817,Blackbird,"Blackbird works with you to remove scalability bottlenecks, reduce manual effort, and create new capabilities that maximize velocity",Marketing,Jobs Recruitment,2,"United States, Sunrise",,,,United States,Sunrise,"Open Source,automated process,database,Delivery,consulting services,Automated Technology"
11909,975972,Maguru,Marketing technologies for local service providers,Marketing,,2,"Skelbækgade, Copenhagen, Denmark",Skelbækgade,,,Denmark,Copenhagen,"CRM,SaaS"
11940,984489,BRAT - Biroul Roman de Audit Transmedia,"BRAT gives the media trends. Audit prints, print & online audience, and monitor advertising investments",Marketing,,2,"Romania, Bucharest",,,,Romania,Bucharest,"Market Intelligence,audit,Printing,monitoring,Advertising,investing,Adtech"
12202,1909,HotelRunner,Smart hospitality solutions in the cloud,Marketing,Travel,4,"Turkey, Istanbul",,,,Turkey,Istanbul,"Travel,Content Management,accommodation,reporting,app,video,Risk Management,platform,branding,SaaS,Messaging,SEO,payment"
12237,1457941,Tanishvi Holdings,Tanishvi Holdings | International Investment & Management Co. | Dubai,Marketing,,2,"United Arab Emirates, Dubai",,,,United Arab Emirates,Dubai,branding
12242,1467315,Investoo Group,Investoo Group | Financial Trading Specialists,Marketing,Fintech,2,"30 Dukes Pl, London EC3A 7HX, Verenigd Koninkrijk",Dukes Place,,,United Kingdom,London,"cryptocurrencies,Retail"
12310,2019619,AgendaPro,Software de gestión | AgendaPro,Marketing,,2,"Santiago, Region Santiago Metropolitan, Chile",,,8320000,Chile,Santiago,
12380,1323884,Boostr,Advertising and media teams with a platform that enables them to manage ad sales processes,Marketing,,2,"United States, Los Gatos",,,,United States,Los Gatos,"platform,Delivery,SaaS,Advertising,Adtech,Automated Technology"
12515,1452463,Onramp Lab,Partners with innovative companies of all sizes and stages to help them scale,Marketing,,3,"Taiwan, Taipei City",,,110,Taiwan,Taipei City,
12706,1508893,Christopher Ward,"Innovative, modern luxury watchmaker",Marketing,Media,2,"United Kingdom, Maidenhead",,,SL6 4,United Kingdom,Maidenhead,"Lifestyle,Jewelry,Aviation & Aerospace,communication,branding,Social,Luxury,Social Media"
12721,1551876,Symbiosis Institute Of Business Management,Postgraduate programs,Marketing,,8,"India, Pune",,,411030,India,Pune,
12852,1713218,Dhirubhai Ambani Institute of Information and Communication Technology,School,Event Tech,,2,"India, Gandhinagar",,,382024,India,Gandhinagar,communication
12853,984991,Serbian Private Equity Association,Advocating the Private Equity and Venture Capital industry in Serbia,Event Tech,,2,"Serbia, Belgrade",,,,Serbia,Belgrade,
12983,1376717,Stamford Innovation Center,The hub for innovation & entrepreneurship,Event Tech,Real Estate,2,"Stamford, CT, United States",,,06901,United States,Stamford,community
12994,2098273,Stitch Health,Stitch,Event Tech,,2,"San Francisco, CA, United States",,,94102,United States,San Francisco,
13002,1456600,Etihad Airways,"Welcome to the official Etihad Airways Twitter account. Follow for the latest updates, events and exclusive competitions. For questions reach us at @EtihadHelp.",Event Tech,Transportation,2,"United Arab Emirates, Abu Dhabi",,,,United Arab Emirates,Abu Dhabi,"Aerospace,accommodation"
13222,1457168,Emirates Capital,Emirates Capital,Home Living,,2,"United Arab Emirates, Dubai",,,,United Arab Emirates,Dubai,Banking
13257,1998127,Query,Query - App per l’assistenza clienti,Home Living,,2,"Italy, Biella, Via Amedeo Avogadro di Quaregna, 10",Via Amedeo Avogadro di Quaregna,10,13900,Italy,Biella,
13265,1877350,The Cluster,"The Cluster enables flexibility in the workplace, interaction with peers, accessibility to technology and work partnerships",Real Estate,,12,"31 Queen St, Melbourne VIC 3000, Australia",Queen Street,31,3000,Australia,Melbourne,"Commercial Real Estate,Real Estate,Collaboration"
13298,1457140,SI Capital Partners,SI-CP,Real Estate,,2,"United Arab Emirates, Abu Dhabi",,,,United Arab Emirates,Abu Dhabi,financial service
13321,2018835,Newday Offices,Newday Offices Amsterdam West - Kantoren en Werkplekken,Real Estate,,12,"Overschiestraat 65, 1062 XD Amsterdam, Netherlands",Overschiestraat,65,1062 XD,Netherlands,Amsterdam,
13418,1457617,Evarei Management,Evarei - Evareium Manager | World-Class Real Estate Asset Management,Real Estate,,2,"United Arab Emirates, Dubai",,,,United Arab Emirates,Dubai,"Asset management,financial service"
13505,1494065,Leeds Innovation Centre,Leeds Innovation Centre is proud to be home to a number of successful and innovative companies,Real Estate,,2,"103 Clarendon Rd, Leeds LS2 9DF, Verenigd Koninkrijk",Clarendon Road,,,United Kingdom,Leeds,community
13529,1790372,U+I,Regeneration Rethought - U+I,Real Estate,,2,"United Kingdom, London, Howick Place, 7A",Howick Place,7A,SW1P 1,United Kingdom,London,
13576,1879095,Frankston Foundry,Co-work Space & Start Up Incubator. Work. Meet. Beach. Repeat,Real Estate,,12,"1-3 Keys St, Frankston VIC 3199, Australia",Keys Street,1-3,3199,Australia,Frankston,
13599,920359,Colliers International,Commercial real estate services,Real Estate,,4,"Seattle, WA, USA",,,,United States,Seattle,"advisory,tenants,brokerage,Property Management,Real Estate,real estate services,Commerce,investing,investing"
13668,2308386,Mapletree Investments,Mapletree - Overview,Real Estate,,2,"Central Expy, Singapore, Singapore",Central Expy,,,Singapore,Singapore,
13708,1782096,Obie,Insurance and Portfolio Management for Commercial Real Estate,Real Estate,Fintech,4,"United States, Chicago",,,60602,United States,Chicago,"Commercial Real Estate,Real Estate,insurtech"
13770,1355230,ACI Materials,Manufacturing and development company,Semiconductors,,2,"United States, Goleta",,,,United States,Goleta,
13856,1861875,FLEXITALLIC,Flexitallic - Innovative Gasket and Sealing Solutions,Semiconductors,,2,"United Kingdom, Cleckheaton, Hunsworth Lane",Hunsworth Lane,,BD19 4LN,United Kingdom,Cleckheaton,
13879,1517152,BACHMANN,Home - Bachmann,Semiconductors,,4,"Egermannstraße 7, 53359 Rheinbach, Germany",Egermannstraße,,,Germany,Rheinbach,Publishing
13892,900296,Elitac Wearables,Wearables developers | Experts on the integration of electronics and textiles,Semiconductors,Fashion,2,"Nijverheidsweg 16b, 3534 AM Utrecht, Netherlands",Nijverheidsweg,16b,3534 AM,Netherlands,Utrecht,"research and development,textile,Wearable,safety,Defense,Information Technology,Analytics"
13979,1645057,Gelt VC,Seed stage firm investing in innovation in the a-r-t industries,Transportation,,2,"United States, San Francisco",,,94102,United States,San Francisco,outside tech
14062,1840672,Volansi,"Providing end-to-end drone delivery services for time-critical parts and supplies, saving customers time, money, and even lives",Transportation,,2,"1500 Sally Ride Dr, Concord, CA 94520, USA",Sally Ride Drive,1500,94520,United States,Concord,
14169,149628,University of Virginia,"UVA Parking & Transportation is committed to providing parking for students, employees, patients, visitors, and event patrons",Transportation,,8,"United States, Charlottesville",,,,United States,Charlottesville,
14283,1568576,Shawcor,"Shawcor, a leading integrated energy services company",Transportation,,3,"Canada, Toronto",,,M5H,Canada,Toronto,
14316,1712379,Scuola Politecnica di Design,School in milan,Transportation,Home Living,4,"Italy, Milan",,,20121,Italy,Milan,
14326,179485,XPO Logistics,One of the fastest growing providers of transportation logistics services in North America,Transportation,,4,"Greenwich, CT, United States",,,06830,United States,Greenwich,"green technology,Aviation & Aerospace,Automotive,Storage,sound technology,logistic,Supply Chain Management,branding,Delivery,Retail,investing"
14334,1503682,Omnicom Engineering,Omnicom Engineering specializes in the development of vehicle borne software and hardware platforms ,Transportation,,2,"Clifton Park Ave, Rawcliffe, York YO30 5PB, Verenigd Koninkrijk",Clifton Park Avenue,,,United Kingdom,York,monitoring
14337,2018760,Bakke Rij,BakkeRij - Scheepscontainers in Waarderpolder in Haarlem,Transportation,,2,"Hendrik Figeeweg 3F, 2031 BJ Haarlem, Netherlands",Hendrik Figeeweg,3F,2031 BJ,Netherlands,Haarlem,
14411,1278094,ODYN,Lets you see everything in the global supply chain | previously Armada Logistics,Transportation,,2,"United States, Cambridge",,,,United States,Cambridge,"Predictive Analytics,Supply Chain Management"
14430,125195,Zubie,"Connected-car app that provides location tracking, driver scoring, alert and location sharing services",Transportation,,2,"United States, Charleston",,,,United States,Charleston,"ride sharing,Verification,Geopositioning,Ticketing,user behavior,battery,Accounting,certification,Fleet Management,Aviation & Aerospace,truck,administration,location based,mobile development,app,Risk Management,platform,Developer Tools,insurtech,Shopping,sharing economy,monitoring,community,Retail,Testing,SaaS,Entertainment,Automated Technology,Navigation,payment"
14674,1861818,ViaSphère,"ViaSphère | OK Service, Merci+, Menage.fr, Viadom, Phinelec",Jobs Recruitment,Real Estate,2,"France, Mulhouse, Rue Victor Schoelcher, 33A",Rue Victor Schoelcher,33A,68200,France,Mulhouse,
14720,2963347,Communo,A talent optimization platform made up of vetted marketing professionals,Jobs Recruitment,,2,"434 W 33rd St, New York, NY 10001, USA",West 33rd Street,434,10001,United States,New York,
14724,1450846,Whale Shark,Pre-VC Accelerator ||Apex hunter || Growth stage Startups & Scaleups Deal Sourcing || ,Jobs Recruitment,,2,"Stockholm, Stockholm County, Sweden",,,111 53,Sweden,Stockholm,
14768,1810275,University of Dayton,"University of Dayton : University of Dayton, Ohio",Jobs Recruitment,,8,"Dayton, OH, United States",,,45402,United States,Dayton,
14773,1454328,FIT,We help you start your career - Fit.ie,Jobs Recruitment,Education,4,"7A Bellevue Ind. Est, Glasnevin, Co. Dublin, 11, Ireland",,,,Ireland,Glasnevin,
14815,1656341,CourseKey,CourseKey is a Career Training SaaS platform serving ninty plus locations across the US,Jobs Recruitment,Legal,2,"United States, San Diego",,,92101,United States,San Diego,"platform,regtech compliance,compliance,SaaS"
14827,1720870,ICFAI Business School,"IBS has been one of the best B-Schools in the country, providing excellent academic delivery and infrastructure to its students",Jobs Recruitment,,2,"India, Pune",,,411030,India,Pune,"outside tech,Delivery"
14858,1458425,Mediapark,"We design and develop responsive websites, web-based systems and mobile apps. Come and join us!",Enterprise Software,,2,"Gedimino pr. 27, Vilnius 01105, Lithuania",Gedimino prospektas,,,Lithuania,Vilnius,"web development,web design,app"
14954,99367,GT Nexus,Software firm offering a saas-based collaboration product that allows companies to manage their extended supply chains,Enterprise Software,,2,"641 6th Ave, New York, NY 10011, USA",6th Avenue,641,,United States,New York,"Supply Chain Management,inventory management"
15047,2001894,Romware,"Building future-proof solutions for maritime services, port terminals, and petrochemical plants",Enterprise Software,,2,"30, Meir, 2000 Antwerp, Belgium",Meir,30,2000,Belgium,Antwerp,maritime
15074,949758,AVA,"Our mission is to enable individuals, organisations and societies to make the best-informed security decisions",Enterprise Software,Security,2,"Torstraße 149, 10119 Berlin, Germany",Torstraße,149,,Germany,Berlin,"personal safety,Public Safety,Disaster Recovery,smart city,Homeland Security,smart cities,Insurtech related,smart home,threat intelligence,Physical Security,Analytics"
15095,1457720,PEYMAN PARSIAN SALIM,"PEYMAN PARSIAN SALIM CO.,LTD",Enterprise Software,,2,"Iran, Tehran",,,,Iran,Tehran,
15176,2060538,Hedera Hashgraph,Hedera Hashgraph,Enterprise Software,,2,"Richardson, TX, United States",,,75080,United States,Richardson,
15305,1520341,Koko,AI Powered Community Moderation,Enterprise Software,,2,"New York, NY, USA",,,,United States,New York,"Cloud Infrastructure,Information Technology,community,SaaS"
15330,1465854,Stereograph,Stereograph - Home,Enterprise Software,,2,"Lille, France",,,,France,Lille,
15405,109783,Trifork,"Software innovation company with the main focus on digital health, fintech and smart buildings/IoT",Enterprise Software,Robotics,4,"Neuhofstrasse 8, 8834 Feusisberg, Switzerland",Neuhofstrasse,8,8834,Switzerland,Feusisberg,"producer,Industrial Automation,industry 4.0,Industrial IoT,NoSQL"
15427,1372639,Vistaar Technologies,Provider of price management solutions,Enterprise Software,,2,"United States, Parsippany-Troy Hills",,,,United States,Parsippany-Troy Hills,"Price Comparison,Retail,SaaS"
15528,1895768,Zoomi,Zoomi Inc | Artificial Intelligence for Learning,Enterprise Software,,2,"Malvern, PA, United States",,,19355,United States,Malvern,
15560,1367607,Retool,A faster way to build internal tools for businesses,Enterprise Software,,2,"United States, San Francisco",,,,United States,San Francisco,app
15588,2131006,Serviceware SE,Next level Enterprise Service Management | Serviceware SE,Enterprise Software,Legal,2,"Carl-Zeiss-Straße 16, 65520 Bad Camberg, Germany",Carl-Zeiss-Straße,16,65520,Germany,Bad Camberg,
15674,1859369,TandemHR Solutions,Our Tandem | Continuous Feedback,Enterprise Software,,2,"Dublin, Ireland",,,,Ireland,Dublin,
15677,2958569,Snapsheet,,Enterprise Software,,2,"Chicago, IL, United States",,,60602,United States,Chicago,
15735,1466068,Robin Systems,ROBIN Hyper-Converged Kubernetes Platform for Big Data,Enterprise Software,,2,"San Jose, CA, USA",,,,United States,San Jose,"Data Analytics,Virtualization,NoSQL"
15767,2735147,Pulse Mining Systems,"Pulse Mining Systems - Mining ERP, Analytics, Consulting",Enterprise Software,,4,"Thornton, NSW 2322, Australia",,,2322,Australia,Thornton,
15798,101853,Nextiva,Nextiva.com - Small Business VoIP & Home Office Phone Service by inTALK,Enterprise Software,,2,"United States, Tempe",,,,United States,Tempe,"Office Space,phone,VoIP"
15800,1458068,Edgematics,Edgematics | A data management company - Middle East and Africa region,Enterprise Software,,2,"United Arab Emirates, Dubai",,,,United Arab Emirates,Dubai,"Business Intelligence,Information Technology"
