,id,name,tagline,industry,industry_2,type,address,street,street_number,zip,country,city,sectors
48,85919,Spark Networks,"Spark Networks – A Leading Provider of Iconic, Niche-Focused Brands.",Dating,,4,"11150 CA-2 #600, Los Angeles, CA 90025, USA",California 2,11150,,United States,West Los Angeles,"presentation,network,Intellectual Property,presentation,community"
65,1314213,The Johns Hopkins Bloomberg School of Public Health,"Research, education, and practice to find solutions for health problems",Kids,Education,8,"United States, Baltimore",,,,United States,Baltimore,
655,867000,Swarovski Group,Homepage - Swarovski Group,,,4,"Switzerland, Männedorf, Alte Landstrasse, 411",Alte Landstrasse,411,8708,Switzerland,Männedorf,
783,1428011,Flora Family Foundation,Flora Family Foundation supports public benefit organizations working throughout the world in diverse sectors,,,3,"United States, Menlo Park",,,,United States,Menlo Park,
972,2027180,Bosch IoT Campus,,,,14,"Ullsteinstraße 128, 12109 Berlin, Germany",Ullsteinstraße,128,12109,Germany,Berlin,
979,1504469,The American School in London,School in london,,,8,"United Kingdom, London",,,SW1A 2,United Kingdom,London,
1239,865395,Hewlett Packard,"Engineering experiences that amaze. We create technology with a purpose: to make life better for everyone, everywhere",,,4,"United States, Palo Alto",,,,United States,Palo Alto,"Music,robotic,wellness / beauty,Automotive,vr experiences,Aerospace,PaaS,Analytics"
1495,1477133,IFly.vc,iFly Venture Capital Fund - Discover Value in the Unsexy : iFly VC,,,3,"United States, Palo Alto",,,94301,United States,Palo Alto,
1756,1237176,Columbia Equity Partners,Columbia Equity Partners,,,3,"1625 Federal Ave E, Seattle, WA 98102, USA",Federal Avenue East,1625,98102,United States,Seattle,
1888,2021370,SRH Start-up Lab,,,,14,"Ernst-Reuter-Platz 10, 10587 Berlin, Germany",Ernst-Reuter-Platz,10,10587,Germany,Berlin,
2038,1532751,Waterford Institute of Technology,School in waterford,,Education,8,"Cork Rd, Waterford, Ireland",Cork Road,,,Ireland,Waterford,
2156,2027195,Thinkfarm,,,,14,"Oberlandstraße 26-35, 12099 Berlin, Germany",Oberlandstraße,26-35,12099,Germany,Berlin,
2276,109427,Tarsadia Investments,Private investment firm providing capital and strategic support for companies with substantial growth potential,,,4,"United States, Newport Beach",,,,United States,Newport Beach,
2317,1458250,Cennini Holding,Cenniniholding,,,15,"Belgium, Roeselare",,,8800,Belgium,Roeselare,
2334,1752590,Davao Doctors College,Quality health and wellness education in the philippines and east asean area,,,8,"Philippines, Davao City",,,8000,Philippines,Davao City,
2366,1588639,Lazaridis School of Business and Economics,"Business school of wilfrid laurier university located in waterloo, ontario",,,8,"Canada, Waterloo",,,N2J,Canada,Waterloo,
2374,112524,Black Diamond Ventures,Black Diamond Ventures,,,4,"United States, Glendale",,,,United States,Glendale,
2532,1390248,Stuyvesant High School,Pro Scientia Atque Sapientia,,,8,"United States, New York",,,,United States,New York,
2548,1634538,Anton & Luisa,Rooms & Creative Space in Berlin Mitte,,,12,"Wöhlertstraße 20, 10115 Berlin, Germany",Wöhlertstraße,,,Germany,Berlin,
2661,1512433,Female Founder Space,"For female founders, entrepreneurs and creatives",,,12,"Werner-Voß-Damm 41, 12101 Berlin, Germany",Werner-Voß-Damm,41,,Germany,Berlin,community
2732,2024465,Caterwings,Caterwings en-DE,,,2,"Berlin, Germany",,,10117,Germany,Berlin,
2869,2019997,Office Club Berlin Prenzlauer Berg,,,,14,"Pappelallee, 10437 Berlin, Germany",Pappelallee,,10437,Germany,Berlin,
2904,1528553,EAE Business School,School,,,8,"Spain, Barcelona",,,08007,Spain,Barcelona,
2943,1635743,Western States Investment Group,"Capital, connections, and strategic advice",,,4,"United States, San Diego",,,92101,United States,San Diego,outside tech
3038,2883337,Spoxies Research,Spoxies B.V.,,,2,"Netherlands, Utrecht",,,3511,Netherlands,Utrecht,
3221,2884560,Soon,Soon | Collaborative Team Scheduling,,,2,"Netherlands, The Hague",,,2514,Netherlands,The Hague,
3225,86215,Sunbridge Partners,Sunbridge Partners,,,4,"United States, Beachwood",,,,United States,Beachwood,"partners,agency"
3263,143259,Innovation College Network,Home,,,2,"United States, Oakland",,,,United States,Oakland,
3287,184258,Draper University,,,,4,"United States, San Mateo",,,,United States,San Mateo,
3303,239227,GrowthX,GrowthX | A trust network of innovators and investors,,,4,"United States, San Francisco",,,,United States,San Francisco,"network,Performance Management,investing,investing,Pay per result"
3312,1449097,Rudolfef,"Light-flooded place to meet, exchange and work",,,12,"Rudolfstraße 11, 10245 Berlin, Germany",Rudolfstraße,11,,Germany,Berlin,workspace
3316,2882834,Perspective Research,Perspective Business DesignHome - Perspective Business Design,,,2,"Netherlands, Amsterdam",,,1011 MG,Netherlands,Amsterdam,
3547,1457609,Interorient Shipmanagement,Interorient Shipmanagement | Ship management services of the highest standard,,,4,"Cyprus, Limassol",,,3041,Cyprus,Limassol,insurtech
3579,1713172,Dr. B. R. Ambedkar National Institute of Technology Jalandhar,Public engineering institute,,,4,"India, Jalandhar",,,144001,India,Jalandhar,
3602,1448661,B+office,,,,14,"Dudenstraße 10, 10965 Berlin, Germany",Dudenstraße,10,,Germany,Berlin,
3714,1713010,Aston Business School,School,,,4,"United Kingdom, Birmingham",,,B3 3,United Kingdom,Birmingham,
3800,1751497,CollegePostings,CollegePostings helps students buy and sell textbooks and find housing and roommates as well as fulltime jobs and internships,,,8,"United States, Rohnert Park",,,94928,United States,Rohnert Park,
3823,1344588,Netherlands Chamber of Commerce,Organization in the united states that promotes commerce with the netherlands,,,16,"United States, New York",,,,United States,New York,
3825,1529315,Academy of Fine Arts and Design in Bratislava,School in bratislava,,,8,"Slovakia, Bratislava, Námestie Republiky",Námestie Republiky,,851 01,Slovakia,Bratislava,
3875,135392,College Art Online,,,,2,"United States, Paradise Valley",,,,United States,Paradise Valley,
3898,1751804,CollegeComplete.com,Education advices to adults and helps them find colleges to finish their studies,,,8,"United States, Deerfield Beach",,,33441,United States,Deerfield Beach,
4048,1233165,Axxess Capital,Axxess Capital is Investment Advisor of private equity funds,,,3,"Romania, Bucharest",,,,Romania,Bucharest,
4050,1862022,Paras Pharmaceuticals,"RB | Protect, heal and nurture",,,4,"India, Ahmedabad",,,380059,India,Ahmedabad,
4106,1751710,CollegeBudget,Services for college students to save money through discounts and collective social buying,,,8,"United States, Los Angeles",,,90012,United States,Los Angeles,
4184,1478176,Lycée privé Sainte-Geneviève,School in versailles,,,8,"France, Versailles",,,78000,France,Versailles,
4229,1500890,"Holgate School, Barnsley",School,,,8,"United Kingdom, Barnsley",,,S70 2,United Kingdom,Barnsley,
4248,1477099,Be Great Partners,begreat.co - This website is for sale! - begreat Resources and Information.,,,3,"United States, Los Angeles",,,90012,United States,Los Angeles,
4256,1239818,Supreme Group,"End-to-end supply chain solutions to defense, government, and commercial sector",,,3,"United Arab Emirates, Dubai",,,,United Arab Emirates,Dubai,
4324,920764,Queen City Angels,Queen City Angels,,,3,"United States, Cincinnati",,,,United States,Cincinnati,
4327,1755135,College Audit Solutions,College Audit Solutions is specialized in accreditation and compliance management systems for private postsecondary institutions,,,8,"United States, Chicago",,,60602,United States,Chicago,
4380,1530368,International School of Amsterdam,Private international school located in the city of Amstelveen in amsterdam,,,8,"Netherlands, Amstelveen",,,1181,Netherlands,Amstelveen,
4403,1720296,Indian Institute of Technology (BHU) Varanasi,A public engineering institution founded in 1919 with 13 departments and three inter-disciplinary schools,,,4,"India, Varanasi",,,221002,India,Varanasi,
4404,1452627,China Steel,"中鋼公司,中國鋼鐵股份有限公司",,,4,"Taiwan, Kaohsiung City",,,802,Taiwan,Kaohsiung City,
4430,1477094,AlphaPrime Ventures,AlphaPrime,,,3,"United States, New York",,,10007,United States,New York,
4747,1861988,Grounded,GROUNDED® – Pure Plant Power,Food,,2,"United Kingdom, London",,,W10 6EH,United Kingdom,London,
4851,1222817,Pet360,"Pet supplies online, including pet food, supplements, toys, medicines, apparel and outside gear",Food,,4,"United States, Plymouth Meeting",,,,United States,Plymouth Meeting,"pet food,pet"
4985,1644858,Namati,Namati trains and deploys grassroots legal advocates – sometimes known as ‘barefoot lawyers’,Legal,,2,"20004 Washington, District of Columbia, United States",,,20004,United States,Washington,"Banking,payment"
5055,1267917,Surgical Frontiers,Surgical Frontiers is making life better for the injured and impaired by funding,Legal,,2,"United States, Logan",,,,United States,Logan,"regtech compliance,regtech compliance,compliance,investing"
5159,2948133,DynamicScreen,,Media,,2,"Bordeaux, Nouvelle-Aquitaine, France",,,33000,France,Bordeaux,
5239,951226,TMT Finance,"TMT Finance | News, insight and networking for telecoms investment globally",Media,,2,"United Kingdom, London",,,SW1A 2,United Kingdom,London,
5430,1456243,CampusDublin,"Our Progressive start-up Co Working TECH-Space is for any TECH Media people, Graduate, Freelancer, Idea-GEEK to Start-up Champion ! https://t.co/rhflGRuhXL",Media,,2,"Ireland, Dublin",,,D01,Ireland,Dublin,"Freelancers,internet of things,financial service"
5462,1456880,Kuwaiti European Holding Company,News from http://t.co/Z3JOKIYzYa (that's the hosted version). Follow @WordPress for .org updates. Get support at: http://t.co/uAI0RPs8hM An @Automattic product.,Media,,2,"Kuwait, Kuwait City",,,,Kuwait,Kuwait City,financial service
5594,2018819,Freedom Lab,,Media,,2,"Amsterdam, Netherlands",,,,Netherlands,Amsterdam,
5668,113811,CollegeStartup,College Startup Magazine | Sharing the stories of student and recent alumni entrepreneurs.,Media,,2,"United States, New York",,,,United States,New York,"sharing,Advertising,Content"
5793,892930,Tribe,A store of live multiplayer games,Media,Gaming,2,"United States, San Francisco",,,,United States,San Francisco,"Freemium,multiplayer,app,video,platform,game development,SaaS,Messaging"
5905,1315500,DomainInvesting.com,Online publication covering the business of domain name investing and the domain name industry,Media,Fintech,2,"United States, Wellesley",,,02481,United States,Wellesley,investing
5923,1529295,Duart,Online tool which gathers actors from the region,Media,,2,"Croatia, Zagreb",,,10000,Croatia,Zagreb,Search Engine
5954,984195,Wall-Street ro,"Wall-Street ro is a newspaper that publishes content on economy, business, capital markets, investments, startups, finance, and more",Media,,2,"Romania, Bucharest",,,,Romania,Bucharest,"Broadcast,Retail,investing"
5955,1532788,Adpow,Social media growth platform,Media,,2,"Bulgaria, Sofia",,,1000,Bulgaria,Sofia,"platform,Social,Social Media"
6010,125954,UniversityJunction,Universityjunction.com,Music,Dating,2,"United States, New York",,,,United States,New York,
6077,149020,GWOP University,GWOP University | Art Is Life!   Gain Wealth Opportunity Prosperity,Music,,2,"United States, Las Vegas",,,,United States,Las Vegas,arts & culture
6149,1457714,Sarir Startup Land,فضای کار اشتراکی و شتابدهی سریر – به رویاهات رنگ واقعیت ببخش,Energy,,2,"Iran, Tehran",,,,Iran,Tehran,"Oil & gas,Information Technology"
6472,1457111,Qatar Solar Technologies,Home | QSTec - Qatar Solar Technologies,Energy,,4,"Qatar, Doha",,,,Qatar,Doha,"solar energy,green technology"
6490,955700,Aggreko,Generator Rental | Temperature Control I Hire Generator I | Aggreko,Energy,,4,"United Kingdom, Glasgow",,,,United Kingdom,Glasgow,"Cooling tech,Recruitment,control systems,temperature,generator,heating,renting,renting"
6507,1761333,Nocart,Nocart is an environmentally conscious energy company using multiple sources to produce high quality green electricity for all needs,Energy,,2,"Niemenkatu 73, 15210 Lahti, Finland",Niemenkatu,73,,Finland,Lahti,"core sustainable impact,sustainable development goals,Affordable and Clean Energy (#7)"
6535,863052,Breeze Technologies,"Breeze pushes the limits of environmental sensor development. Their small-scale air quality sensors can measure common pollutants like carbon and nitrogen oxides, ozone, particulate matter and many more. Their competitive price point allows for new applications like smart air quality management in your office buildings or large-scale environmental sensing in your urban environment",Energy,Real Estate,2,"Harburger Schloßstraße 6-12, 21079 Hamburg, Germany",Harburger Schloßstraße,6-12,21079,Germany,Hamburg,"sustainable development goals,urban tech,Sustainable Cities and Communities (#11),smart city,govtech,smart cities,Climate Action (#13),core sustainable impact,environment,Life on Land (#15)"
6617,1541128,International Academy of Computer Graphics,IACG as an Industrial Academy is offerin,Gaming,Education,8,"India, Hyderabad",,,500001,India,Hyderabad,
6725,1319050,Co=Creation=Capital,Build cool technologies and services that are spectacularly financially successful,Gaming,,4,"United States, Menlo Park",,,,United States,Menlo Park,game development
6808,2910448,Alaya Care,Home Care Software | Home Health Software | AlayaCare,Health,,2,"Montreal, QC, Canada",,,H2L,Canada,Montreal,
6830,101454,Health Enterprise Partners,Healthcare Private Equity Firm - Health Enterprise Partners,Health,,3,"United States, New York",,,,United States,New York,"partners,medical / healthcare,healthcare,equity research,Health"
7176,1452647,"Institute of Information Science, Academia Sinica","Institute of Biological Chemistry, Academia Sinica",Health,,3,"Taiwan, Taipei City",,,110,Taiwan,Taipei City,Biotechnology
7387,1530831,VUmc,University hospital affiliated with the VU University Amsterdam,Health,,8,"Netherlands, Amsterdam",,,1011 MG,Netherlands,Amsterdam,
7388,1411151,Cold Spring Harbor Biological Laboratory,Cold Spring Harbor Laboratory is Preparing students and families to thrive in the gene age,Health,,8,"United States, Cold Spring Harbor",,,,United States,Cold Spring Harbor,
7517,1532732,Athlone Institute of Technology,"Higher learning academic institute providing courses on business, humanities, engineering and science",Health,,2,"Dublin Rd, Bunnavally, Athlone, Co. Westmeath, Ireland",Dublin Road,,,Ireland,Athlone,
7528,1646325,St Jude Children’s Research Hospital,Pediatric treatment and research facility focused on children's catastrophic,Health,,4,"United States, Memphis",,,38103,United States,Memphis,"cancer,oncology,children,outside tech"
7570,2021419,OnCall Health,"OnCall Health – Online Counselling, Telemedicine, Practice Management",Health,,2,"Toronto, ON, Canada",,,M5H,Canada,Toronto,Messaging
7631,1457869,Maysaffron,maysaffron,Health,,2,"United Arab Emirates, Abu Dhabi",,,,United Arab Emirates,Abu Dhabi,
7668,892048,Pixyl,Working to improve patient care by placing the most advanced AI tech in the hands of radiologists and clinicians,Health,Enterprise Software,2,"5 Avenue du Grand Sablon, 38700 La Tronche, France",Avenue du Grand Sablon,5,38700,France,La Tronche,"healthcare,neurology,patient care,stroke,Biotechnology,Analytics"
7899,2121656,Wogic,Vaxini vaccine tracker & reminder. Immunization worldwide. - Vaxini,Health,,2,"Am Waldpark 20, 13467 Berlin, Germany",Am Waldpark,20,13467,Germany,Berlin,
8363,1245487,Travel Open Partnership,TOP disintermediates the OTAs (Priceline/Expedia) by giving hotels the means to earn travel commission from their own guests’ upcoming trips,Travel,,3,"Ireland, Dublin",,,,Ireland,Dublin,"Travel,Predictive Analytics"
8399,880188,Adara Media,ADARA leverages global travel data to drive future business performance,Travel,Telecom,2,"United States, Mountain View",,,,United States,Mountain View,"Travel,user behavior,platform,Search Engine,sharing economy,SaaS,investing"
8629,1539628,Rayson Technology,"One-stop shopping for EMS/JDMS services with quality, cost-performance, flexibility and creativity",Fashion,,4,China,,,,China,Shenzhen,"outside tech,Shopping"
8637,981478,Oliver Wicks,"Online custom menswear, made of Italian and English wool",Fashion,,2,"Bulgaria, Sofia",,,,Bulgaria,Sofia,"Lifestyle,service provider,Retail"
8639,1465126,InfoScout,InfoScout OmniPanel | Numerator,Fashion,,2,"United States, San Francisco",,,94102,United States,San Francisco,Shopping
8645,86757,Shopbop,Shopbop.com Designer Women's Fashion Brands,Fashion,,2,"1301 E Washington Ave, Madison, WI 53703, USA",East Washington Avenue,1301,,United States,Madison,branding
8704,1645454,Glider,Finance and executive leadership with insights into a company’s sales activities,Fintech,,2,"United States, Portland",,,97201,United States,Portland,"reporting,investing"
8726,1459547,N+1 Group,"N+1 is an investment platform specialised in advising on, promoting, developing and managing investment products",Fintech,,2,"Spain, Madrid",,,28013,Spain,Madrid,
8775,139503,Rock Health,Seed fund investing in digital health startups,Fintech,Telecom,4,"United States, San Francisco",,,,United States,San Francisco,"reporting,user behavior,app,Risk Management,platform,SaaS,investing"
8815,1651391,Paulson Investment Company,Investment banking firm focused on the small to mid-cap markets,Fintech,,4,"United States, Portland",,,97201,United States,Portland,"outside tech,Banking"
8871,1457508,Ozkan Corporation,"Özkan Corporation is a conglomerate holding company in the Turkish Republic of Northern Cyprus, with several investments in different business sectors",Fintech,Health,2,"Cyprus, Nicosia",,,1015,Cyprus,Nicosia,"Health Care,Advertising,investing"
8872,1642267,The Tech Garden,The Tech Garden is providing the environment and resources needed to foster the growth of emerging technology companies,Fintech,,2,"United States, Syracuse",,,13202,United States,Syracuse,"Social,investing"
8876,1239945,Alawwal Bank,Banking and investment services in the kingdom of saudi arabia,Fintech,,3,"Saudi Arabia, Riyadh",,,,Saudi Arabia,Riyadh,Banking
8890,1652204,Covisum,"Financial advisors with software, training and support to deliver retirement income plans",Fintech,,15,"United States, Omaha",,,68102,United States,Omaha,retirement
8934,987759,Penny Royalty,An Alternative Investment Model that issues security token to invest in people's careers,Fintech,,2,"Israel, Tel Aviv-Yafo",,,,Israel,Tel Aviv-Yafo,"Crowdfunding,Innovation Management,platform,SaaS"
8949,1457838,Capira Capital,Capira Capital,Fintech,Real Estate,2,"United Arab Emirates, Dubai",,,,United Arab Emirates,Dubai,debt collection
8988,1393341,Invencor,Venture capital and private equity firm,Fintech,,2,"United States, San Francisco",,,,United States,San Francisco,"debt collection,investing"
9119,1210852,Nullatech,Our prediction service gives you important insights to overcome risks of trading and investment caused by uncertainty of the future market,Fintech,,3,"Iran, Tehran",,,,Iran,Tehran,"Trading,user behavior,Risk Management,Social,Social Media"
9168,1457675,Windsor Brokers,Windsor Brokers - Forex | CFD | Stocks,Fintech,,4,"Cyprus, Limassol",,,3041,Cyprus,Limassol,"brokerage,Trading"
9195,1454669,AXA Life Europe,,Fintech,,2,"Ireland, Dublin",,,D01,Ireland,Dublin,"Insurance,financial service"
9264,1569374,Oxygen,"Digital bank, focused on freelancers and the gig-economy at large offering banking and credit",Fintech,,2,"United States, San Francisco",,,94102,United States,San Francisco,"financial service,loan,Freelancers,credit card,Banking"
9304,1456938,Phaze Ventures,phaze ventures,Fintech,,2,"Oman, Muscat",,,,Oman,Muscat,"platform,SaaS"
9308,951284,American Family Insurance,"American Family Insurance Quotes for Auto, Home, Life and More | American Family Insurance",Fintech,,4,"United States, Madison",,,53703,United States,Madison,insurtech
9344,1457697,AMD Venture Capital,AMD provides the global platform for the sourcing and management of early-stage investments,Fintech,,2,"Cyprus, Nicosia",,,1015,Cyprus,Nicosia,"platform,SaaS,investing"
9366,1455080,Insurance Regulatory Capital,Insurance Regulatory Capital,Fintech,,2,"Ireland, Dublin",,,D01,Ireland,Dublin,"debt collection,financial service,regtech compliance,insurtech,compliance"
9374,1455486,Trinity Fund Administration,Trinity is a global hedge fund services company that provides admin services to a wide range of funds. We also offer risk and regulatory reporting solutions,Fintech,,2,"Ireland, Dublin",,,D01,Ireland,Dublin,"Hedge Funds,financial service,reporting,Information Technology,Risk Management,regtech compliance,regtech compliance,compliance"
9429,1454229,Financial Risk Solutions,FRS - Home,Fintech,,2,"Ireland, Dublin",,,D01,Ireland,Dublin,"administration,Accounting,Trading,reporting,financial service,Risk Management,regtech compliance"
9431,1221190,2nate,Crowdfunding platform which helps people to raise fund for their projects which have social impacts,Fintech,,3,"Iran, Tehran",,,,Iran,Tehran,"Crowdfunding,platform,Social"
9437,137017,CardFlight,Cardflight - Mobile POS Made Easy.,Fintech,,2,"United States, New York",,,,United States,New York,point of sale
9462,896253,FSV Payment Systems,,Fintech,,2,"United States, Jacksonville",,,32202,United States,Jacksonville,"Human Resources,Recruitment,mapping,platform,Banking,Delivery,Retail,Navigation,payment"
9467,1323706,Parkwood,"Dynamic and fast-growing private financial services company based in cleveland, ohio",Fintech,,4,"United States, Cleveland",,,,United States,Cleveland,
9528,1726408,PME Investimentos,Provider of revitalization and expansion of the supply of finance to companies in the non-financial sector,Fintech,,3,"Portugal, Porto",,,4000-069,Portugal,Porto,"debt collection,Risk Management,Banking,sharing economy,investing"
9552,107071,Systems Maintenance Services,,Fintech,Media,2,"United States, Charlotte",,,,United States,Charlotte,"on-demand,Storage,video,Retail,consulting services,Messaging"
9573,1456216,PLC Partners,"PLC Partners. IT Management Consultants, Dublin, Ireland",Fintech,,2,"Ireland, Dublin",,,D01,Ireland,Dublin,"enterprise resource planning,Crowdsourcing,Information Technology,sharing economy,Delivery,consulting services,Testing,SaaS,payment"
9599,1237257,MANAFA Capital,Investment marketplace for innovative businesses regulated by the saudi capital market authority,Fintech,,3,"Saudi Arabia, Riyadh",,,,Saudi Arabia,Riyadh,"financial service,Crowdfunding"
9660,1566077,DBS Securities Limited,Securities Acquisition and Liquidation,Fintech,,2,"Japan, Tokyo",,,,Japan,Tokyo,"Crowdfunding,debt collection,investing"
9670,1454267,MENA Ventures,Default Web Site Page,Fintech,,2,"Ireland, Dublin",,,D01,Ireland,Dublin,financial service
9681,2881628,Payments & Cards Network,PCN - The Number 1 Source For Recruitment Jobs,Fintech,,2,"Netherlands, Amsterdam",,,1011 MG,Netherlands,Amsterdam,
9716,985201,Crimson Capital,Crimson Capital is an international leader in emerging market development,Fintech,,4,"Prague, Czech Republic",,,,Czech Republic,Prague,"Mortgages & Lending,Business Development,Developer Tools"
9719,1457267,Kuwait Financial Centre - Markaz,"Kuwait Financial Centre Markaz is one of the leading asset management and investment banking institution with offices across the Middle East, the U.S., & India",Fintech,,4,"Kuwait, Kuwait City",,,,Kuwait,Kuwait City,"financial service,Asset management,Banking"
9728,1389984,Lake Forest Graduate School of Management,School in lake forest,Fintech,,8,"United States, Lake Forest",,,,United States,Lake Forest,
9754,1208783,FundCalcs,Cloud based software and hold existing data to replicate or replace fund administration calculations,Fintech,,3,"Ireland, Dublin",,,,Ireland,Dublin,"reporting,administration,Automated Technology"
9763,984140,Banca Transilvania,"Banca Transilvania is one of the leading banks in Romania, consistently ranked as one of the country's most trusted brands",Fintech,,4,"Romania, Cluj-Napoca",,,,Romania,Cluj-Napoca,Banking
9825,1454146,Husky Finance,Husky Finance - We help you make the best pension choices,Fintech,,2,"Ireland, Dublin",,,D01,Ireland,Dublin,"Personal Finance,financial service,regtech compliance,Developer Tools,compliance,SaaS"
9828,1511558,Wellth,Wellth - Beautiful Investment Tracking,Fintech,,2,"United Kingdom, London",,,SW1A 2,United Kingdom,London,
9844,1456907,KAMCO Investment,KAMCO Investment Company,Fintech,,2,"Kuwait, Kuwait City",,,,Kuwait,Kuwait City,"Asset management,Banking"
9939,1375133,Nordic Innovation House,"Accelerator, co-working & virtual office for nordic tech companies",Fintech,Real Estate,3,"United States, Palo Alto",,,,United States,Palo Alto,"community,investing"
9940,1240349,Centaur Fund Services,Provider of independent fund administration and regulatory services,Fintech,,2,"D01 V9V4 Dublin, Ireland",,,D01 V9V4,Ireland,Dublin,"administration,financial service,Banking,compliance"
10003,1456828,Cocoon Venture,Cocoon Ventures,Fintech,,2,"United Arab Emirates, Dubai",,,,United Arab Emirates,Dubai,"financial service,investing"
10057,1216081,Fransabank,"Retail, corporate, investment, and private banking services",Fintech,,3,"Lebanon, Beirut",,,,Lebanon,Beirut,"Mortgages & Lending,financial service,Banking,Retail"
10180,1467788,Epooq Business Management,Free business profile for EPOOQ.COM provided by Network Solutions,Hosting,Kids,2,"Sweden, Stockholm",,,112 47,Sweden,Stockholm,"Insurance,insurtech"
10397,1706803,Symbiosis Institute of Telecom Management,Symbiosis Institute of Telecom Management,Telecom,,2,"India, Pune",,,411030,India,Pune,outside tech
10451,1551137,Ginserv,"Infrastructure, ignition funding, entrepreneurial ecosystem, and knowledge-based services for startups",Telecom,,2,"India, Bengaluru",,,560002,India,Bengaluru,
10469,1464998,Idealab,Idealab,Telecom,,4,"United States, Pasadena",,,91101,United States,Pasadena,
10483,1465807,Sitemark,,Robotics,,2,"Gaston Geenslaan 11, 3001 Leuven, Belgium",Gaston Geenslaan,,,Belgium,Leuven,
10569,1457950,Enginee-ring,Outsourced Agile Engineering by Enginee-ring.com,Robotics,,2,"Cyprus, Nicosia",,,1015,Cyprus,Nicosia,
10683,1455531,Morrigan Partners,Morrigan Partners - The Leading Developer in Mobile Security,Security,,2,"Ireland, Dublin",,,D01,Ireland,Dublin,"cybersecurity,Information Technology"
10779,1505011,Plexal,Plexal is the innovation centre and coworking space based at Here East,Security,Real Estate,12,"Plexal, Here East, Queen Elizabeth Olympic Park, Hackney Wick, London E20 3BS",,,E20 3BS,United Kingdom,London,Security
11043,1283249,U.S. Miltary Academy / United States Military Academy,"Four year coeducational federal service academy located in west point, new york",Education,,8,"United States, West Point",,,,United States,West Point,
11081,1270781,Taunt,Esports fan competition platform,Education,,2,"Seattle, WA, United States",,,98104,United States,Seattle,"platform,game development,SaaS,Social"
11108,141220,Scratch Music Group,Scratch.com - Learn to DJ | Discover | Book a DJ,Education,Music,2,"United States, New York",,,,United States,New York,"dj,Retail,Entertainment"
11123,1529329,Estonian Business School,Training facility that caters the needs of organizations’ management functions,Education,,8,"A. Lauteri 3, 10114 Tallinn, Estonia",A. Lauteri,3,10114,Estonia,Tallinn,
11128,1519311,Bucerius Law School,"Private law school located in hamburg, germany",Education,,2,"Jungiusstraße 6, 20355 Hamburg, Germany",Jungiusstraße,,,Germany,Hamburg,
11129,102933,College Tutors 4 You,College Tutoring Service Center in NYC,Education,,2,"United States, New York",,,,United States,New York,
11132,139418,Grantham University,Online university founded by wwii veteran donald grantham,Education,,4,"United States, Kansas City",,,,United States,Kansas City,
11152,1455072,Tuk Tuk Cartel,Tuk Tuk Cartel,Education,,2,"Ireland, Dublin",,,D01,Ireland,Dublin,non-profit
11174,1250929,Colorado School of Mines,"Public teaching and research university in golden, colorado",Education,,8,"United States, Golden",,,,United States,Golden,
11205,1522331,Northwest Career College,"Northwest Career College | Trade School Las Vegas, NV",Education,,2,"United States, Las Vegas",,,89101,United States,Las Vegas,
11218,1310915,National Academy of Sports Medicine,Global leader in science based certification in certified personal trainer,Education,,8,"United States, Chandler",,,,United States,Chandler,
11239,121614,CollegeClickTV,College Videos & Virtual Campus Tours | Online College Reviews by Students - CollegeClickTV.com	College Videos | Student Interviews | College Tips | College Rankings | College Statistics | CollegeClickTV.com,Education,,2,"United States, New York",,,,United States,New York,"recommendation,review,tips,interview,Student,tourism,Statistics,video,Advertising,Freemium"
11252,104096,University of Metaphysical Sciences,Metaphysics University | Metaphysics School | Metaphysical University | Metaphysical Classes | Metaphysical Degree,Education,,2,"United States, Arcata",,,,United States,Arcata,school
11253,118932,Newberry College,,Education,,2,"United States, Newberry",,,29108,United States,Newberry,
11261,1720558,Fore School of Management,School in new delhi,Education,,4,"India, New Delhi",,,110001,India,New Delhi,
11266,1455777,Start-ed Free Legal Workshop,StartEd - Education Through Innovation,Education,Legal,2,"Ireland, Dublin",,,D01,Ireland,Dublin,
11380,1553627,T. A. Pai Management Institute,Indian management institute that supports the task of building professional management capabilities,Education,,8,"India, Bengaluru",,,560002,India,Bengaluru,
11408,1649383,Townfolio,City data as a service,Education,,2,"Canada, Saskatoon",,,S7K,Canada,Saskatoon,
11411,101087,College Student Apartments,College Apartments and Sublets | College Student Apartments,Education,,2,"United States, Dallas",,,,United States,Dallas,apartment
11437,1725608,New Model in Technology & Engineering,The first wholly new British HEI or university level institution in over 40 years,Education,,2,"United Kingdom, Hereford",,,HR4 0,United Kingdom,Hereford,
11443,1722799,Royal Academy of Arts,"The Royal Academy of Arts promotes the creation, enjoyment, and appreciation of the visual arts through exhibitions, education, and debate",Education,,4,"United Kingdom, London",,,SW1A 2,United Kingdom,London,"Charity,outside tech,arts & culture"
11454,1354064,Sewickley Academy,"Sewickley Academy inspires and educates students to engage their hearts, minds, and hands to cultivate their full individual",Education,,8,"United States, Sewickley",,,15143,United States,Sewickley,
11494,216141,Craftsy,"Is the premier destination for learning, inspiration, and supplies for passionate enthusiast makers",Education,,2,"United States, Denver",,,,United States,Denver,"app,Printing,community,arts & culture"
11501,1719319,HTW saar,The htw saar counseling and preparatory study deals interested refugees,Education,,2,"Germany, Saarbrucken",,,66111,Germany,Saarbrücken,
11506,154917,Bryn Mawr College,,Education,,2,"United States, Bryn Mawr",,,,United States,Bryn Mawr,
11516,133894,Appliance University,Appliance University is the Place for Appliance & HVAC/R Training Teaching How To Properly Diagnose and Repair,Education,,2,"United States, Aptos",,,,United States,Aptos,"Training,repair,teaching"
11533,1546009,"International Institute of Information Technology, Hyderabad (IIIT-H)",Autonomous university founded in 1998,Education,,8,"India, Hyderabad",,,500001,India,Hyderabad,
11562,1647582,Phillips Exeter Academy,Coeducational independent school for boarding and day students between the 9th and 12th grade,Education,,2,"United States, Exeter",,,93221,United States,Exeter,outside tech
11576,1475776,SmartMe.University,Platform for online learning,Education,,2,"01001 Kiev, Ukraine",,,01001,Ukraine,Kiev,"Content,E-Learning"
11605,1318901,Graduate Theological Union,School in berkeley,Education,Fintech,8,"United States, Berkeley",,,,United States,Berkeley,
11614,112516,Alderleaf Wilderness College,,Education,,2,"United States, Monroe",,,,United States,Monroe,
11641,1391856,Loyola Law School,School in los angeles,Education,,8,"United States, Los Angeles",,,,United States,Los Angeles,
11655,129264,Rhode Island School of Design,"At The Easel and in The Studio - Sights, Scenes, and Thoughts from The Rhode Island School of Design",Education,Kids,8,"United States, Providence",,,,United States,Providence,
11671,1459465,Avalon,"The first network of experts in Spanish, a promoter of open innovation and a tool capable of providing companies with the knowledge they need, when they need it and how they need it",Marketing,,15,"Spain, Madrid",,,28013,Spain,Madrid,"Knowledge Management,Business Intelligence"
11872,985595,Euro Digital Partners,International Digital Marketing Agency with experience from ICOs to ecommerce,Marketing,,2,"Prague, Czech Republic",,,,Czech Republic,Prague,"Advertising,Adtech,SEO"
11940,984489,BRAT - Biroul Roman de Audit Transmedia,"BRAT gives the media trends. Audit prints, print & online audience, and monitor advertising investments",Marketing,,2,"Romania, Bucharest",,,,Romania,Bucharest,"Market Intelligence,audit,Printing,monitoring,Advertising,investing,Adtech"
11969,1457567,Creative Solutions,Creative Solutions Software & Web Development Company in Saudi Arabia,Marketing,,2,"Saudi Arabia, Riyadh",,,12211,Saudi Arabia,Riyadh,"app,video,Adtech,SEO"
12202,1909,HotelRunner,Smart hospitality solutions in the cloud,Marketing,Travel,4,"Turkey, Istanbul",,,,Turkey,Istanbul,"Travel,Content Management,accommodation,reporting,app,video,Risk Management,platform,branding,SaaS,Messaging,SEO,payment"
12222,900497,Maker,Discover And Share The Stories Behind Products | Maker,Marketing,,2,"United States, San Francisco",,,,United States,San Francisco,product
12237,1457941,Tanishvi Holdings,Tanishvi Holdings | International Investment & Management Co. | Dubai,Marketing,,2,"United Arab Emirates, Dubai",,,,United Arab Emirates,Dubai,branding
12320,911129,Perficient,Digital consultancy transforming how enterprises connect with customers & grow their business,Marketing,,4,"United States, Austin",,,,United States,Austin,"enterprise resource planning,Content Management,Analytics"
12515,1452463,Onramp Lab,Partners with innovative companies of all sizes and stages to help them scale,Marketing,,3,"Taiwan, Taipei City",,,110,Taiwan,Taipei City,
12721,1551876,Symbiosis Institute Of Business Management,Postgraduate programs,Marketing,,8,"India, Pune",,,411030,India,Pune,
12852,1713218,Dhirubhai Ambani Institute of Information and Communication Technology,School,Event Tech,,2,"India, Gandhinagar",,,382024,India,Gandhinagar,communication
12853,984991,Serbian Private Equity Association,Advocating the Private Equity and Venture Capital industry in Serbia,Event Tech,,2,"Serbia, Belgrade",,,,Serbia,Belgrade,
12855,103189,Dillard University,Celebrating 145 Years of Excellence and Heritage #MYDU,Event Tech,,2,"United States, New Orleans",,,,United States,New Orleans,
12932,1448699,Blogfabrik,Blogfabrik Berlin - Coworking Space und Agentur für digitalen Content,Event Tech,,12,"Oranienstraße 185, 10999 Berlin, Germany",Oranienstraße,,,Germany,Berlin,"workspace,Office Space,event management"
12983,1376717,Stamford Innovation Center,The hub for innovation & entrepreneurship,Event Tech,Real Estate,2,"Stamford, CT, United States",,,06901,United States,Stamford,community
13002,1456600,Etihad Airways,"Welcome to the official Etihad Airways Twitter account. Follow for the latest updates, events and exclusive competitions. For questions reach us at @EtihadHelp.",Event Tech,Transportation,2,"United Arab Emirates, Abu Dhabi",,,,United Arab Emirates,Abu Dhabi,"Aerospace,accommodation"
13024,1448642,Alte Kantine Wedding,Realize your own events and implement your ideas into action,Event Tech,,12,"Uferstraße 8-11, 13357 Berlin, Germany",Uferstraße,,,Germany,Berlin,"corporate events,event management,workspace,live events"
13083,148600,College Labor,,Home Living,,2,"United States, San Francisco",,,,United States,San Francisco,
13222,1457168,Emirates Capital,Emirates Capital,Home Living,,2,"United Arab Emirates, Dubai",,,,United Arab Emirates,Dubai,Banking
13298,1457140,SI Capital Partners,SI-CP,Real Estate,,2,"United Arab Emirates, Abu Dhabi",,,,United Arab Emirates,Abu Dhabi,financial service
13321,2018835,Newday Offices,Newday Offices Amsterdam West - Kantoren en Werkplekken,Real Estate,,12,"Overschiestraat 65, 1062 XD Amsterdam, Netherlands",Overschiestraat,65,1062 XD,Netherlands,Amsterdam,
13405,1455449,Green Property Investment Fund 1 Plc,Green Deposito,Real Estate,Fintech,2,"Ireland, Dublin",,,D01,Ireland,Dublin,"green technology,Commerce,Property Management,Real Estate,Retail"
13418,1457617,Evarei Management,Evarei - Evareium Manager | World-Class Real Estate Asset Management,Real Estate,,2,"United Arab Emirates, Dubai",,,,United Arab Emirates,Dubai,"Asset management,financial service"
13420,224173,Calverton Business Incubator,Incubator at Stony Brook University,Real Estate,Education,8,"United States, Calverton",,,,United States,Calverton,
13423,1456060,Hibernia REIT,Hibernia REIT plc,Real Estate,Fintech,2,"Ireland, Dublin",,,D01,Ireland,Dublin,
13529,1790372,U+I,Regeneration Rethought - U+I,Real Estate,,2,"United Kingdom, London, Howick Place, 7A",Howick Place,7A,SW1P 1,United Kingdom,London,
13535,1636930,Arora New York,Real Estate Investment Firm,Real Estate,,2,"United States, New York",,,10007,United States,New York,outside tech
13576,1879095,Frankston Foundry,Co-work Space & Start Up Incubator. Work. Meet. Beach. Repeat,Real Estate,,12,"1-3 Keys St, Frankston VIC 3199, Australia",Keys Street,1-3,3199,Australia,Frankston,
13619,1649019,Avison Young,Commercial real estate services firm,Real Estate,,4,"Canada, Toronto",,,M5H,Canada,Toronto,"Mortgages & Lending,outside tech,Retail"
13675,1337365,The John Marshall Law School,Educational institution that prepares students for work in legal fields,Real Estate,,8,"United States, Chicago",,,,United States,Chicago,
13680,1483773,Chalus Chegaray & Compagnie,Chalus Chegaray & compagine helps to financing and accounting any company positioned on a potential market in long term process,Real Estate,,2,"France, Le Havre",,,76600,France,Le Havre,
13770,1355230,ACI Materials,Manufacturing and development company,Semiconductors,,2,"United States, Goleta",,,,United States,Goleta,
13811,1456412,MyTechBuyBack,Mytech Buyback is the leading provider of short term micro funding secured on consumer electronics. Get up to £400 instantly.,Semiconductors,Fintech,2,"Ireland, Dublin",,,D01,Ireland,Dublin,"financial service,micro lending"
13856,1861875,FLEXITALLIC,Flexitallic - Innovative Gasket and Sealing Solutions,Semiconductors,,2,"United Kingdom, Cleckheaton, Hunsworth Lane",Hunsworth Lane,,BD19 4LN,United Kingdom,Cleckheaton,
13979,1645057,Gelt VC,Seed stage firm investing in innovation in the a-r-t industries,Transportation,,2,"United States, San Francisco",,,94102,United States,San Francisco,outside tech
14062,1840672,Volansi,"Providing end-to-end drone delivery services for time-critical parts and supplies, saving customers time, money, and even lives",Transportation,,2,"1500 Sally Ride Dr, Concord, CA 94520, USA",Sally Ride Drive,1500,94520,United States,Concord,
14283,1568576,Shawcor,"Shawcor, a leading integrated energy services company",Transportation,,3,"Canada, Toronto",,,M5H,Canada,Toronto,
14315,117825,The College Driver,College Driver | Car Reviews | Car Road Test | Car Test Reviews | Auto Shows and Reviews,Transportation,,2,"United States, Rochester",,,,United States,Rochester,"review,car,recommendation,Automotive"
14316,1712379,Scuola Politecnica di Design,School in milan,Transportation,Home Living,4,"Italy, Milan",,,20121,Italy,Milan,
14326,179485,XPO Logistics,One of the fastest growing providers of transportation logistics services in North America,Transportation,,4,"Greenwich, CT, United States",,,06830,United States,Greenwich,"green technology,Aviation & Aerospace,Automotive,Storage,sound technology,logistic,Supply Chain Management,branding,Delivery,Retail,investing"
14337,2018760,Bakke Rij,BakkeRij - Scheepscontainers in Waarderpolder in Haarlem,Transportation,,2,"Hendrik Figeeweg 3F, 2031 BJ Haarlem, Netherlands",Hendrik Figeeweg,3F,2031 BJ,Netherlands,Haarlem,
14720,2963347,Communo,A talent optimization platform made up of vetted marketing professionals,Jobs Recruitment,,2,"434 W 33rd St, New York, NY 10001, USA",West 33rd Street,434,10001,United States,New York,
14724,1450846,Whale Shark,Pre-VC Accelerator ||Apex hunter || Growth stage Startups & Scaleups Deal Sourcing || ,Jobs Recruitment,,2,"Stockholm, Stockholm County, Sweden",,,111 53,Sweden,Stockholm,
14757,1454903,Ballymun Whitehall Area Partnership,We are a community based organisation operating for over 20 years in the Ballymun Whitehall Area for the benefit of residents and the community,Jobs Recruitment,,2,"Ireland, Dublin",,,D01,Ireland,Dublin,"Charity,Recruitment,non-profit,community"
14827,1720870,ICFAI Business School,"IBS has been one of the best B-Schools in the country, providing excellent academic delivery and infrastructure to its students",Jobs Recruitment,,2,"India, Pune",,,411030,India,Pune,"outside tech,Delivery"
14985,74935,Intelligent Positioning,Search technology to improve brands' social performance,Enterprise Software,Marketing,2,"120 Church St, Brighton BN1 1UD, UK",Church Street,,BN1 1UD,United Kingdom,Brighton,"Search Engine,Analytics,Social"
15040,2126949,Airport Research Center,Home - ARC,Enterprise Software,,2,"Bismarckstraße 61, 52066 Aachen, Germany",Bismarckstraße,61,52066,Germany,Aachen,
15095,1457720,PEYMAN PARSIAN SALIM,"PEYMAN PARSIAN SALIM CO.,LTD",Enterprise Software,,2,"Iran, Tehran",,,,Iran,Tehran,
15176,2060538,Hedera Hashgraph,Hedera Hashgraph,Enterprise Software,,2,"Richardson, TX, United States",,,75080,United States,Richardson,
15190,1237988,Acceleration Partners,Digital strategy and affiliate marketing firm focused on online customer acquisition for e-commerce companies,Enterprise Software,,2,"United States, Needham",,,,United States,Needham,
15202,108128,CollegeMobile,,Enterprise Software,,2,"Canada, Saskatoon",,,,Canada,Saskatoon,
15427,1372639,Vistaar Technologies,Provider of price management solutions,Enterprise Software,,2,"United States, Parsippany-Troy Hills",,,,United States,Parsippany-Troy Hills,"Price Comparison,Retail,SaaS"
15600,96586,Qualiteam Software,Services | X-Cart,Enterprise Software,,2,"Cyprus, Limassol",,,,Cyprus,Limassol,agency
15735,1466068,Robin Systems,ROBIN Hyper-Converged Kubernetes Platform for Big Data,Enterprise Software,,2,"San Jose, CA, USA",,,,United States,San Jose,"Data Analytics,Virtualization,NoSQL"
