,id,name,tagline,industry,industry_2,type,address,street,street_number,zip,country,city,sectors
65,1314213,The Johns Hopkins Bloomberg School of Public Health,"Research, education, and practice to find solutions for health problems",Kids,Education,8,"United States, Baltimore",,,,United States,Baltimore,
423,1233426,Allunga Advisory,Boutique investment bank with an established track record of successful transactions,,,3,"19-29 Martin Pl, Sydney NSW 2000, Australia",Martin Place,19-29,2000,Australia,Sydney,
508,1477137,Keiretsu Capital,"Keiretsu Capital, LLC",,,3,"United States, Seattle",,,98104,United States,Seattle,
655,867000,Swarovski Group,Homepage - Swarovski Group,,,4,"Switzerland, Männedorf, Alte Landstrasse, 411",Alte Landstrasse,411,8708,Switzerland,Männedorf,
783,1428011,Flora Family Foundation,Flora Family Foundation supports public benefit organizations working throughout the world in diverse sectors,,,3,"United States, Menlo Park",,,,United States,Menlo Park,
919,2007412,Darwin Startups,Darwin Startups - Aceleradora e Ecossistema de Evolução para Startups,,,3,"Brazil, Florianópolis",,,88020-000,Brazil,Florianópolis,
979,1504469,The American School in London,School in london,,,8,"United Kingdom, London",,,SW1A 2,United Kingdom,London,
1910,1771530,Phytocontrol Group,Phytocontrol - Laboratoire d'analyses - Eaux et Aliments,,,2,"Naymès, Navès, Occitanie, France",,,81710,France,Navès,
2317,1458250,Cennini Holding,Cenniniholding,,,15,"Belgium, Roeselare",,,8800,Belgium,Roeselare,
2366,1588639,Lazaridis School of Business and Economics,"Business school of wilfrid laurier university located in waterloo, ontario",,,8,"Canada, Waterloo",,,N2J,Canada,Waterloo,
2374,112524,Black Diamond Ventures,Black Diamond Ventures,,,4,"United States, Glendale",,,,United States,Glendale,
2532,1390248,Stuyvesant High School,Pro Scientia Atque Sapientia,,,8,"United States, New York",,,,United States,New York,
2904,1528553,EAE Business School,School,,,8,"Spain, Barcelona",,,08007,Spain,Barcelona,
3038,2883337,Spoxies Research,Spoxies B.V.,,,2,"Netherlands, Utrecht",,,3511,Netherlands,Utrecht,
3177,1722972,London Academy of Music and Dramatic Art,School,,,16,"155 Talgarth Rd, Hammersmith, London W14 9DA, UK",Talgarth Road,,,United Kingdom,London,
3221,2884560,Soon,Soon | Collaborative Team Scheduling,,,2,"Netherlands, The Hague",,,2514,Netherlands,The Hague,
3225,86215,Sunbridge Partners,Sunbridge Partners,,,4,"United States, Beachwood",,,,United States,Beachwood,"partners,agency"
3316,2882834,Perspective Research,Perspective Business DesignHome - Perspective Business Design,,,2,"Netherlands, Amsterdam",,,1011 MG,Netherlands,Amsterdam,
3579,1713172,Dr. B. R. Ambedkar National Institute of Technology Jalandhar,Public engineering institute,,,4,"India, Jalandhar",,,144001,India,Jalandhar,
3602,1448661,B+office,,,,14,"Dudenstraße 10, 10965 Berlin, Germany",Dudenstraße,10,,Germany,Berlin,
3714,1713010,Aston Business School,School,,,4,"United Kingdom, Birmingham",,,B3 3,United Kingdom,Birmingham,
3734,935660,Vlerick Business School,"Vlerick Business School is a top European Management School, with campuses in Ghent, Brussels and Leuven",,,8,"Reep 1, 9000 Gent, Belgium",Reep,1,9000,Belgium,Gent,school
3823,1344588,Netherlands Chamber of Commerce,Organization in the united states that promotes commerce with the netherlands,,,16,"United States, New York",,,,United States,New York,
3825,1529315,Academy of Fine Arts and Design in Bratislava,School in bratislava,,,8,"Slovakia, Bratislava, Námestie Republiky",Námestie Republiky,,851 01,Slovakia,Bratislava,
4048,1233165,Axxess Capital,Axxess Capital is Investment Advisor of private equity funds,,,3,"Romania, Bucharest",,,,Romania,Bucharest,
4050,1862022,Paras Pharmaceuticals,"RB | Protect, heal and nurture",,,4,"India, Ahmedabad",,,380059,India,Ahmedabad,
4092,28327,Pharus Capital Management,Private fund manager and investment company,,,3,"Pace University Midtown Center, New York, NY 10176, USA",,,10176,United States,New York,
4184,1478176,Lycée privé Sainte-Geneviève,School in versailles,,,8,"France, Versailles",,,78000,France,Versailles,
4229,1500890,"Holgate School, Barnsley",School,,,8,"United Kingdom, Barnsley",,,S70 2,United Kingdom,Barnsley,
4366,1529350,Vilnius Academy of Arts,School in vilnius,,,8,"Lithuania, Vilnius",,,01108,Lithuania,Vilnius,
4403,1720296,Indian Institute of Technology (BHU) Varanasi,A public engineering institution founded in 1919 with 13 departments and three inter-disciplinary schools,,,4,"India, Varanasi",,,221002,India,Varanasi,
4479,1691395,Baylor Angel Network,Student-run investor network at baylor university providing start-up funds to entrepreneurs,,,3,"500 Speight Ave, Waco, TX 76798, USA",Speight Avenue,500,76798,United States,Waco,
4747,1861988,Grounded,GROUNDED® – Pure Plant Power,Food,,2,"United Kingdom, London",,,W10 6EH,United Kingdom,London,
4991,1532785,Hyper Group,Services on the capital and forex markets and accounting services,Legal,,2,"Bulgaria, Varna",,,9002,Bulgaria,Varna,
5357,1248500,Fogio,FogScreen® projection screen – Walk through magic,Media,Semiconductors,2,"Maalarinpolku 6, 45360 Valkeala, Finland",Maalarinpolku,,,Finland,Valkeala,Visualization
5594,2018819,Freedom Lab,,Media,,2,"Amsterdam, Netherlands",,,,Netherlands,Amsterdam,
5923,1529295,Duart,Online tool which gathers actors from the region,Media,,2,"Croatia, Zagreb",,,10000,Croatia,Zagreb,Search Engine
5955,1532788,Adpow,Social media growth platform,Media,,2,"Bulgaria, Sofia",,,1000,Bulgaria,Sofia,"platform,Social,Social Media"
6535,863052,Breeze Technologies,"Breeze pushes the limits of environmental sensor development. Their small-scale air quality sensors can measure common pollutants like carbon and nitrogen oxides, ozone, particulate matter and many more. Their competitive price point allows for new applications like smart air quality management in your office buildings or large-scale environmental sensing in your urban environment",Energy,Real Estate,2,"Harburger Schloßstraße 6-12, 21079 Hamburg, Germany",Harburger Schloßstraße,6-12,21079,Germany,Hamburg,"sustainable development goals,urban tech,Sustainable Cities and Communities (#11),smart city,govtech,smart cities,Climate Action (#13),core sustainable impact,environment,Life on Land (#15)"
6617,1541128,International Academy of Computer Graphics,IACG as an Industrial Academy is offerin,Gaming,Education,8,"India, Hyderabad",,,500001,India,Hyderabad,
6808,2910448,Alaya Care,Home Care Software | Home Health Software | AlayaCare,Health,,2,"Montreal, QC, Canada",,,H2L,Canada,Montreal,
6830,101454,Health Enterprise Partners,Healthcare Private Equity Firm - Health Enterprise Partners,Health,,3,"United States, New York",,,,United States,New York,"partners,medical / healthcare,healthcare,equity research,Health"
7388,1411151,Cold Spring Harbor Biological Laboratory,Cold Spring Harbor Laboratory is Preparing students and families to thrive in the gene age,Health,,8,"United States, Cold Spring Harbor",,,,United States,Cold Spring Harbor,
7450,1723556,Erasmus MC,Largest and most versatile of the eight university medical centers in the netherlands,Health,,4,"Doctor Molewaterplein 40, 3015 GD Rotterdam, Netherlands",Doctor Molewaterplein,,,Netherlands,Rotterdam,
7528,1646325,St Jude Children’s Research Hospital,Pediatric treatment and research facility focused on children's catastrophic,Health,,4,"United States, Memphis",,,38103,United States,Memphis,"cancer,oncology,children,outside tech"
7570,2021419,OnCall Health,"OnCall Health – Online Counselling, Telemedicine, Practice Management",Health,,2,"Toronto, ON, Canada",,,M5H,Canada,Toronto,Messaging
8164,2107829,Wolox,,Sports,,2,"San Francisco, CA, United States",,,94102,United States,San Francisco,
8495,1646918,LaSalle Hotel Properties,"A multi-operator REIT owning a portfolio of 46 upscale, full-service hotels located throughout the US",Travel,,2,"20814 Bethesda, Maryland, United States",,,20814,United States,Bethesda,Luxury
8629,1539628,Rayson Technology,"One-stop shopping for EMS/JDMS services with quality, cost-performance, flexibility and creativity",Fashion,,4,China,,,,China,Shenzhen,"outside tech,Shopping"
8645,86757,Shopbop,Shopbop.com Designer Women's Fashion Brands,Fashion,,2,"1301 E Washington Ave, Madison, WI 53703, USA",East Washington Avenue,1301,,United States,Madison,branding
8704,1645454,Glider,Finance and executive leadership with insights into a company’s sales activities,Fintech,,2,"United States, Portland",,,97201,United States,Portland,"reporting,investing"
8815,1651391,Paulson Investment Company,Investment banking firm focused on the small to mid-cap markets,Fintech,,4,"United States, Portland",,,97201,United States,Portland,"outside tech,Banking"
8890,1652204,Covisum,"Financial advisors with software, training and support to deliver retirement income plans",Fintech,,15,"United States, Omaha",,,68102,United States,Omaha,retirement
8988,1393341,Invencor,Venture capital and private equity firm,Fintech,,2,"United States, San Francisco",,,,United States,San Francisco,"debt collection,investing"
9095,1812778,Oxygen,"Oxygen – Banking for free thinkers, rebels and entrepreneurs. Awarded Best Digital Banking Account in the US",Fintech,,2,"United States, San Francisco",,,94102,United States,San Francisco,Banking
9528,1726408,PME Investimentos,Provider of revitalization and expansion of the supply of finance to companies in the non-financial sector,Fintech,,3,"Portugal, Porto",,,4000-069,Portugal,Porto,"debt collection,Risk Management,Banking,sharing economy,investing"
9728,1389984,Lake Forest Graduate School of Management,School in lake forest,Fintech,,8,"United States, Lake Forest",,,,United States,Lake Forest,
9763,984140,Banca Transilvania,"Banca Transilvania is one of the leading banks in Romania, consistently ranked as one of the country's most trusted brands",Fintech,,4,"Romania, Cluj-Napoca",,,,Romania,Cluj-Napoca,Banking
10397,1706803,Symbiosis Institute of Telecom Management,Symbiosis Institute of Telecom Management,Telecom,,2,"India, Pune",,,411030,India,Pune,outside tech
10480,1474291,Envisioning,Envisioning - Technology Intelligence Platform,Robotics,,2,"Tallinn, Estonia",,,,Estonia,Tallinn,"Market Intelligence,Information Technology,platform,SaaS"
10565,1512818,SHS Technologies,SOANA - Optical Inline Measurement System,Robotics,,2,"Schulstraße 63, 09125 Chemnitz, Duitsland",Schulstraße,,,Germany,Chemnitz,Consumer Electronics
10658,1693731,SANS Technology Institute,Degree programs in information security engineering and management,Security,,2,"20814 Bethesda, Maryland, United States",,,20814,United States,Bethesda,"sharing economy,community,Testing"
11043,1283249,U.S. Miltary Academy / United States Military Academy,"Four year coeducational federal service academy located in west point, new york",Education,,8,"United States, West Point",,,,United States,West Point,
11108,141220,Scratch Music Group,Scratch.com - Learn to DJ | Discover | Book a DJ,Education,Music,2,"United States, New York",,,,United States,New York,"dj,Retail,Entertainment"
11174,1250929,Colorado School of Mines,"Public teaching and research university in golden, colorado",Education,,8,"United States, Golden",,,,United States,Golden,
11189,1717240,Sciences Po Paris,Sciences Po is France’s leading university in the social sciences and has been educating decision-makers in the public,Education,,4,"27 Rue Saint-Guillaume, 75007 Paris, Frankrijk",Rue Saint-Guillaume,,,France,Paris,Social
11215,1719083,Herlufsholm School,Education purposes for students,Education,,4,"Herlufsholm Alle 170, 4700 Næstved, Denmark",Herlufsholm Alle,170,,Denmark,Næstved,
11218,1310915,National Academy of Sports Medicine,Global leader in science based certification in certified personal trainer,Education,,8,"United States, Chandler",,,,United States,Chandler,
11261,1720558,Fore School of Management,School in new delhi,Education,,4,"India, New Delhi",,,110001,India,New Delhi,
11264,1531388,Amsterdam School of the Arts,Government-funded institution for higher professional education,Education,,8,"Jodenbreestraat, 1011 NS Amsterdam, Netherlands",Jodenbreestraat,,1011 NS,Netherlands,Amsterdam,
11380,1553627,T. A. Pai Management Institute,Indian management institute that supports the task of building professional management capabilities,Education,,8,"India, Bengaluru",,,560002,India,Bengaluru,
11437,1725608,New Model in Technology & Engineering,The first wholly new British HEI or university level institution in over 40 years,Education,,2,"United Kingdom, Hereford",,,HR4 0,United Kingdom,Hereford,
11443,1722799,Royal Academy of Arts,"The Royal Academy of Arts promotes the creation, enjoyment, and appreciation of the visual arts through exhibitions, education, and debate",Education,,4,"United Kingdom, London",,,SW1A 2,United Kingdom,London,"Charity,outside tech,arts & culture"
11454,1354064,Sewickley Academy,"Sewickley Academy inspires and educates students to engage their hearts, minds, and hands to cultivate their full individual",Education,,8,"United States, Sewickley",,,15143,United States,Sewickley,
11501,1719319,HTW saar,The htw saar counseling and preparatory study deals interested refugees,Education,,2,"Germany, Saarbrucken",,,66111,Germany,Saarbrücken,
11533,1546009,"International Institute of Information Technology, Hyderabad (IIIT-H)",Autonomous university founded in 1998,Education,,8,"India, Hyderabad",,,500001,India,Hyderabad,
11560,1308110,Trinity School,School,Education,Kids,8,"2650 Sand Hill Rd, Menlo Park, CA 94025, USA",Sand Hill Road,2650,94025,United States,Menlo Park,
11562,1647582,Phillips Exeter Academy,Coeducational independent school for boarding and day students between the 9th and 12th grade,Education,,2,"United States, Exeter",,,93221,United States,Exeter,outside tech
11605,1318901,Graduate Theological Union,School in berkeley,Education,Fintech,8,"United States, Berkeley",,,,United States,Berkeley,
11641,1391856,Loyola Law School,School in los angeles,Education,,8,"United States, Los Angeles",,,,United States,Los Angeles,
11759,2134913,Kantar Media,Home | Kantar Media,Marketing,,2,"Barmbeker Straße 6A, 22303 Hamburg, Germany",Barmbeker Straße,6A,22303,Germany,Hamburg,
11872,985595,Euro Digital Partners,International Digital Marketing Agency with experience from ICOs to ecommerce,Marketing,,2,"Prague, Czech Republic",,,,Czech Republic,Prague,"Advertising,Adtech,SEO"
11969,1457567,Creative Solutions,Creative Solutions Software & Web Development Company in Saudi Arabia,Marketing,,2,"Saudi Arabia, Riyadh",,,12211,Saudi Arabia,Riyadh,"app,video,Adtech,SEO"
12242,1467315,Investoo Group,Investoo Group | Financial Trading Specialists,Marketing,Fintech,2,"30 Dukes Pl, London EC3A 7HX, Verenigd Koninkrijk",Dukes Place,,,United Kingdom,London,"cryptocurrencies,Retail"
12577,1818553,Acoustic,Home | Acoustic,Marketing,,2,"United States, New York",,,10007,United States,New York,
12721,1551876,Symbiosis Institute Of Business Management,Postgraduate programs,Marketing,,8,"India, Pune",,,411030,India,Pune,
12841,128322,8200 EISP,8200 EISP - Home,Event Tech,,2,"United States, Urbana, West Illinois Street, 918",West Illinois Street,918,61801,United States,Urbana,
12852,1713218,Dhirubhai Ambani Institute of Information and Communication Technology,School,Event Tech,,2,"India, Gandhinagar",,,382024,India,Gandhinagar,communication
12853,984991,Serbian Private Equity Association,Advocating the Private Equity and Venture Capital industry in Serbia,Event Tech,,2,"Serbia, Belgrade",,,,Serbia,Belgrade,
13420,224173,Calverton Business Incubator,Incubator at Stony Brook University,Real Estate,Education,8,"United States, Calverton",,,,United States,Calverton,
13529,1790372,U+I,Regeneration Rethought - U+I,Real Estate,,2,"United Kingdom, London, Howick Place, 7A",Howick Place,7A,SW1P 1,United Kingdom,London,
13577,2023111,NexVex,Free Roofing Estimates EASY & FAST | RoofMarketplace.com,Real Estate,,2,"Milwaukee, WI, United States",,,53202,United States,Milwaukee,
13616,1516340,Eucon,Driven by Data. Guided by Experts - Eucon,Real Estate,Transportation,2,"Martin-Luther-King-Weg 2, 48155 Münster, Duitsland",Martin-Luther-King-Weg,,,Germany,Münster,"Automotive,Market Intelligence,Information Technology"
13675,1337365,The John Marshall Law School,Educational institution that prepares students for work in legal fields,Real Estate,,8,"United States, Chicago",,,,United States,Chicago,
13856,1861875,FLEXITALLIC,Flexitallic - Innovative Gasket and Sealing Solutions,Semiconductors,,2,"United Kingdom, Cleckheaton, Hunsworth Lane",Hunsworth Lane,,BD19 4LN,United Kingdom,Cleckheaton,
14316,1712379,Scuola Politecnica di Design,School in milan,Transportation,Home Living,4,"Italy, Milan",,,20121,Italy,Milan,
14674,1861818,ViaSphère,"ViaSphère | OK Service, Merci+, Menage.fr, Viadom, Phinelec",Jobs Recruitment,Real Estate,2,"France, Mulhouse, Rue Victor Schoelcher, 33A",Rue Victor Schoelcher,33A,68200,France,Mulhouse,
14827,1720870,ICFAI Business School,"IBS has been one of the best B-Schools in the country, providing excellent academic delivery and infrastructure to its students",Jobs Recruitment,,2,"India, Pune",,,411030,India,Pune,"outside tech,Delivery"
14865,1514759,Bosch SoftTec,Bosch SoftTec GmbH,Enterprise Software,,2,"Germany, Hildesheim",,,31134,Germany,Hildesheim,Publishing
15040,2126949,Airport Research Center,Home - ARC,Enterprise Software,,2,"Bismarckstraße 61, 52066 Aachen, Germany",Bismarckstraße,61,52066,Germany,Aachen,
15427,1372639,Vistaar Technologies,Provider of price management solutions,Enterprise Software,,2,"United States, Parsippany-Troy Hills",,,,United States,Parsippany-Troy Hills,"Price Comparison,Retail,SaaS"
